<gpx xmlns="http://www.topografix.com/GPX/1/1" xmlns:xsi="http://www.w3.org/2001/XMLSchema-instance" xsi:schemaLocation="http://www.topografix.com/GPX/1/1 http://www.topografix.com/GPX/1/1/gpx.xsd" version="1.1" creator="GPXLAB"><trk><trkseg><trkpt lat="43.0930649" lon="27.513786300000003"/><trkpt lat="43.09738610000002" lon="27.5068962"/><trkpt lat="43.097731100000004" lon="27.504996799999997"/><trkpt lat="43.09726319999996" lon="27.499316099999998"/><trkpt lat="43.09926089999999" lon="27.492436500000004"/><trkpt lat="43.10064080000001" lon="27.4856254"/><trkpt lat="43.103542800000014" lon="27.480422399999995"/><trkpt lat="43.10436789999997" lon="27.4756625"/><trkpt lat="43.1057309" lon="27.475895899999998"/><trkpt lat="43.10721749999999" lon="27.475169799999996"/><trkpt lat="43.111624000000035" lon="27.4747993"/><trkpt lat="43.12089180000001" lon="27.4708097"/><trkpt lat="43.1245845" lon="27.470439099999997"/><trkpt lat="43.12475660000001" lon="27.4715366"><ele>62.6</ele></trkpt></trkseg></trk><trk><trkseg><trkpt lat="43.092946600000005" lon="27.5138807"><ele>62.9</ele><time>2026-06-07T06:41:01Z</time></trkpt><trkpt lat="43.086658400000005" lon="27.5219191"><ele>55.8</ele><time>2026-06-07T06:47:46Z</time></trkpt><trkpt lat="43.083255699999995" lon="27.5278951"><ele>71.4</ele><time>2026-06-07T06:50:47Z</time></trkpt><trkpt lat="43.08254310000001" lon="27.528014399999996"><ele>72.1</ele><time>2026-06-07T06:51:13Z</time></trkpt><trkpt lat="43.080149800000044" lon="27.526560800000002"><ele>102.3</ele><time>2026-06-07T06:52:46Z</time></trkpt><trkpt lat="43.0779761" lon="27.527408999999995"><ele>104.1</ele><time>2026-06-07T06:54:03Z</time></trkpt><trkpt lat="43.07364799999999" lon="27.5274113"><ele>121.2</ele><time>2026-06-07T06:56:57Z</time></trkpt><trkpt lat="43.0726775" lon="27.524528300000004"><ele>128.1</ele><time>2026-06-07T06:58:20Z</time></trkpt><trkpt lat="43.06939360000001" lon="27.525542500000004"><ele>151</ele><time>2026-06-07T07:00:33Z</time></trkpt><trkpt lat="43.06727720000001" lon="27.537909299999995"><ele>144.4</ele><time>2026-06-07T07:06:50Z</time></trkpt><trkpt lat="43.06403169999999" lon="27.5541752"><ele>113.9</ele><time>2026-06-07T07:19:55Z</time></trkpt><trkpt lat="43.06351539999997" lon="27.5551206"><ele>114.7</ele><time>2026-06-07T07:21:03Z</time></trkpt><trkpt lat="43.06354390000001" lon="27.5566391"><ele>120.3</ele><time>2026-06-07T07:22:53Z</time></trkpt><trkpt lat="43.06223410000004" lon="27.555881499999998"><ele>106.3</ele><time>2026-06-07T07:24:00Z</time></trkpt><trkpt lat="43.060373999999996" lon="27.5713783"><ele>93.2</ele><time>2026-06-07T07:33:35Z</time></trkpt><trkpt lat="43.05804610000004" lon="27.573284399999995"><ele>106.8</ele><time>2026-06-07T07:35:40Z</time></trkpt><trkpt lat="43.05685399999999" lon="27.5753694"><ele>103.8</ele><time>2026-06-07T07:39:16Z</time></trkpt><trkpt lat="43.05563079999999" lon="27.580795200000004"><ele>78.6</ele><time>2026-06-07T07:42:33Z</time></trkpt><trkpt lat="43.0612543" lon="27.5799783"><ele>73.5</ele><time>2026-06-07T07:47:25Z</time></trkpt><trkpt lat="43.061380299999996" lon="27.589936799999997"><ele>101.8</ele><time>2026-06-07T07:54:59Z</time></trkpt><trkpt lat="43.05776209999996" lon="27.590906900000004"><ele>96</ele><time>2026-06-07T07:58:03Z</time></trkpt><trkpt lat="43.05671910000001" lon="27.592619700000004"><ele>93.7</ele><time>2026-06-07T07:58:58Z</time></trkpt><trkpt lat="43.056329000000005" lon="27.5964656"><ele>91.5</ele><time>2026-06-07T08:01:30Z</time></trkpt><trkpt lat="43.058379099999996" lon="27.5971304"><ele>99.7</ele><time>2026-06-07T08:04:03Z</time></trkpt><trkpt lat="43.0588315" lon="27.5989827"><ele>101.3</ele><time>2026-06-07T08:04:55Z</time></trkpt><trkpt lat="43.05983409999999" lon="27.5991087"><ele>107.1</ele><time>2026-06-07T08:05:37Z</time></trkpt><trkpt lat="43.06007070000001" lon="27.6031005"><ele>105.4</ele><time>2026-06-07T08:08:13Z</time></trkpt></trkseg></trk></gpx>