<?xml version="1.0" encoding="UTF-8"?>
<gpx creator="GlobalMotionEditor" version="1.1" xmlns="http://www.topografix.com/GPX/1/1">
<metadata>
<name>х.Бъндерица - Кончето</name>
<desc>Bientus, Inc. - www.ramblr.com - Share your outdoor stories on a map!</desc>
<author>
<name>ptolev</name>
</author>
<link href="http://www.ramblr.com/web/mymap/trip/64417/446870"></link>
<time>2010-01-01T00:00:00Z</time>
</metadata>

<wpt lat="41.7709635" lon="23.4080461">
  <ele>2752.89</ele>
  <name>Shelter Kazana</name>
  <cmt>Заслон Казана</cmt>
</wpt>

<wpt lat="41.767140" lon="23.398919999999976">
  <ele>2895.55</ele>
  <name>Vihren peak</name>
  <cmt>вр. Вихрен</cmt>
</wpt>

<wpt lat="41.77686459794992" lon="23.400020599365234">
  <ele>2880.69</ele>
  <name>Kutelo peak</name>
  <cmt>вр. Кутело</cmt>
</wpt>

<wpt lat="41.77171176198586" lon="23.396769762039185">
  <ele>2726.01</ele>
  <name>Fork 3 - left</name>
  <cmt>Разклон 3 - наляво</cmt>
  <desc>Излизане на Премката</desc>
</wpt>

<wpt lat="41.77018580" lon="23.40963530">
  <ele>2419</ele>
  <name>Fork 2 - left</name>
  <cmt>Разклон 2 - наляво</cmt>
  <desc>Разклон х.Бъндерица/х.Вихрен</desc>
</wpt>
  
  <wpt lat="41.7590672" lon="23.411886">
    <time>2012-11-03T10:34:33Z</time>
    <name>Fork 1 - right</name>
    <cmt>Разклон 1 - надясно</cmt>
    <desc>За Казаните</desc>
  </wpt>

<trk>
<name>х.Бъндерица - Кончето</name>

    <trkseg>
      <trkpt lat="41.75632190" lon="23.41663860"><ele>1915.0000</ele></trkpt>
      <trkpt lat="41.75641330" lon="23.41659880"><ele>1920.0000</ele></trkpt>
      <trkpt lat="41.75651060" lon="23.41657550"><ele>1925.0000</ele></trkpt>
      <trkpt lat="41.75665330" lon="23.41655290"><ele>1930.0000</ele></trkpt>
      <trkpt lat="41.75671210" lon="23.41652780"><ele>1935.0000</ele></trkpt>
      <trkpt lat="41.75668970" lon="23.41643010"><ele>1940.0000</ele></trkpt>
      <trkpt lat="41.75667000" lon="23.41630570"><ele>1945.0000</ele></trkpt>
      <trkpt lat="41.75666570" lon="23.41622770"><ele>1950.0000</ele></trkpt>
      <trkpt lat="41.75668300" lon="23.41611360"><ele>1955.0000</ele></trkpt>
      <trkpt lat="41.75678090" lon="23.41612010"><ele>1960.0000</ele></trkpt>
      <trkpt lat="41.75684560" lon="23.41607320"><ele>1965.0000</ele></trkpt>
      <trkpt lat="41.75691550" lon="23.41594860"><ele>1970.0000</ele></trkpt>
      <trkpt lat="41.75693780" lon="23.41581090"><ele>1975.0000</ele></trkpt>
      <trkpt lat="41.75698810" lon="23.41570030"><ele>1980.0000</ele></trkpt>
      <trkpt lat="41.75706180" lon="23.41559770"><ele>1985.0000</ele></trkpt>
      <trkpt lat="41.75711550" lon="23.41548160"><ele>1988.0000</ele></trkpt>
      <trkpt lat="41.75716850" lon="23.41538790"><ele>1989.0000</ele></trkpt>
      <trkpt lat="41.75725540" lon="23.41533570"><ele>1990.0000</ele></trkpt>
      <trkpt lat="41.75730310" lon="23.41524170"><ele>1992.0000</ele></trkpt>
      <trkpt lat="41.75735840" lon="23.41517180"><ele>1993.0000</ele></trkpt>
      <trkpt lat="41.75741060" lon="23.41508480"><ele>1995.0000</ele></trkpt>
      <trkpt lat="41.75742330" lon="23.41503540"><ele>1997.0000</ele></trkpt>
      <trkpt lat="41.75743810" lon="23.41493820"><ele>2000.0000</ele></trkpt>
      <trkpt lat="41.75741460" lon="23.41484500"><ele>2004.0000</ele></trkpt>
      <trkpt lat="41.75739790" lon="23.41473740"><ele>2008.0000</ele></trkpt>
      <trkpt lat="41.75738080" lon="23.41462290"><ele>2013.0000</ele></trkpt>
      <trkpt lat="41.75733870" lon="23.41454170"><ele>2015.0000</ele></trkpt>
      <trkpt lat="41.75731910" lon="23.41443280"><ele>2019.0000</ele></trkpt>
      <trkpt lat="41.75732440" lon="23.41430080"><ele>2024.0000</ele></trkpt>
      <trkpt lat="41.75737500" lon="23.41422420"><ele>2028.0000</ele></trkpt>
      <trkpt lat="41.75740560" lon="23.41416280"><ele>2030.0000</ele></trkpt>
      <trkpt lat="41.75744310" lon="23.41407820"><ele>2033.0000</ele></trkpt>
      <trkpt lat="41.75749520" lon="23.41403260"><ele>2034.0000</ele></trkpt>
      <trkpt lat="41.75753770" lon="23.41399210"><ele>2035.0000</ele></trkpt>
      <trkpt lat="41.75754290" lon="23.41389290"><ele>2037.0000</ele></trkpt>
      <trkpt lat="41.75760030" lon="23.41379260"><ele>2042.0000</ele></trkpt>
      <trkpt lat="41.75768220" lon="23.41379750"><ele>2042.0000</ele></trkpt>
      <trkpt lat="41.75772710" lon="23.41368320"><ele>2048.0000</ele></trkpt>
      <trkpt lat="41.75778370" lon="23.41357070"><ele>2055.0000</ele></trkpt>
      <trkpt lat="41.75785520" lon="23.41351760"><ele>2058.0000</ele></trkpt>
      <trkpt lat="41.75790580" lon="23.41349110"><ele>2060.0000</ele></trkpt>
      <trkpt lat="41.75799970" lon="23.41351400"><ele>2059.0000</ele></trkpt>
      <trkpt lat="41.75806670" lon="23.41346550"><ele>2062.0000</ele></trkpt>
      <trkpt lat="41.75812640" lon="23.41342210"><ele>2065.0000</ele></trkpt>
      <trkpt lat="41.75813490" lon="23.41334140"><ele>2069.0000</ele></trkpt>
      <trkpt lat="41.75819540" lon="23.41326150"><ele>2072.0000</ele></trkpt>
      <trkpt lat="41.75825820" lon="23.41320850"><ele>2073.0000</ele></trkpt>
      <trkpt lat="41.75825200" lon="23.41309110"><ele>2077.0000</ele></trkpt>
      <trkpt lat="41.75826240" lon="23.41300790"><ele>2080.0000</ele></trkpt>
      <trkpt lat="41.75827650" lon="23.41291030"><ele>2083.0000</ele></trkpt>
      <trkpt lat="41.75836140" lon="23.41290350"><ele>2085.0000</ele></trkpt>
      <trkpt lat="41.75832660" lon="23.41282480"><ele>2087.0000</ele></trkpt>
      <trkpt lat="41.75828410" lon="23.41274730"><ele>2090.0000</ele></trkpt>
      <trkpt lat="41.75826340" lon="23.41267240"><ele>2095.0000</ele></trkpt>
      <trkpt lat="41.75833420" lon="23.41265590"><ele>2096.0000</ele></trkpt>
      <trkpt lat="41.75828910" lon="23.41257870"><ele>2101.0000</ele></trkpt>
      <trkpt lat="41.75827340" lon="23.41244660"><ele>2108.0000</ele></trkpt>
      <trkpt lat="41.75829400" lon="23.41236690"><ele>2112.0000</ele></trkpt>
      <trkpt lat="41.75835150" lon="23.41233070"><ele>2114.0000</ele></trkpt>
      <trkpt lat="41.75837800" lon="23.41229270"><ele>2116.0000</ele></trkpt>
      <trkpt lat="41.75846370" lon="23.41225690"><ele>2118.0000</ele></trkpt>
      <trkpt lat="41.75856270" lon="23.41223990"><ele>2120.0000</ele></trkpt>
      <trkpt lat="41.75865410" lon="23.41223560"><ele>2121.0000</ele></trkpt>
      <trkpt lat="41.75873500" lon="23.41220800"><ele>2122.0000</ele></trkpt>
      <trkpt lat="41.75880070" lon="23.41213900"><ele>2124.0000</ele></trkpt>
      <trkpt lat="41.75889450" lon="23.41202130"><ele>2128.0000</ele></trkpt>
      <trkpt lat="41.75891570" lon="23.41195850"><ele>2129.0000</ele></trkpt>
      <trkpt lat="41.75898500" lon="23.41195650"><ele>2130.0000</ele></trkpt>
      <trkpt lat="41.75907150" lon="23.41193970"><ele>2131.0000</ele></trkpt>
      <trkpt lat="41.75914610" lon="23.41197620"><ele>2131.0000</ele></trkpt>
      <trkpt lat="41.75923730" lon="23.41205060"><ele>2132.0000</ele></trkpt>
      <trkpt lat="41.75928200" lon="23.41210710"><ele>2132.0000</ele></trkpt>
      <trkpt lat="41.75932490" lon="23.41219950"><ele>2132.0000</ele></trkpt>
      <trkpt lat="41.75940790" lon="23.41223660"><ele>2133.0000</ele></trkpt>
      <trkpt lat="41.75947270" lon="23.41227320"><ele>2134.0000</ele></trkpt>
      <trkpt lat="41.75953940" lon="23.41240840"><ele>2134.0000</ele></trkpt>
      <trkpt lat="41.75961940" lon="23.41243550"><ele>2136.0000</ele></trkpt>
      <trkpt lat="41.75970150" lon="23.41248740"><ele>2137.0000</ele></trkpt>
      <trkpt lat="41.75980600" lon="23.41247330"><ele>2141.0000</ele></trkpt>
      <trkpt lat="41.75986410" lon="23.41242820"><ele>2144.0000</ele></trkpt>
      <trkpt lat="41.75989640" lon="23.41235380"><ele>2147.0000</ele></trkpt>
      <trkpt lat="41.75997000" lon="23.41238070"><ele>2149.0000</ele></trkpt>
      <trkpt lat="41.76005280" lon="23.41236000"><ele>2152.0000</ele></trkpt>
      <trkpt lat="41.76009200" lon="23.41230060"><ele>2155.0000</ele></trkpt>
      <trkpt lat="41.76015830" lon="23.41231860"><ele>2155.0000</ele></trkpt>
      <trkpt lat="41.76020730" lon="23.41233160"><ele>2156.0000</ele></trkpt>
      <trkpt lat="41.76028590" lon="23.41231460"><ele>2158.0000</ele></trkpt>
      <trkpt lat="41.76035530" lon="23.41226320"><ele>2159.0000</ele></trkpt>
      <trkpt lat="41.76044020" lon="23.41220620"><ele>2161.0000</ele></trkpt>
      <trkpt lat="41.76051090" lon="23.41212340"><ele>2164.0000</ele></trkpt>
      <trkpt lat="41.76056750" lon="23.41202180"><ele>2167.0000</ele></trkpt>
      <trkpt lat="41.76066940" lon="23.41199280"><ele>2171.0000</ele></trkpt>
      <trkpt lat="41.76075100" lon="23.41192030"><ele>2176.0000</ele></trkpt>
      <trkpt lat="41.76084860" lon="23.41185140"><ele>2181.0000</ele></trkpt>
      <trkpt lat="41.76093370" lon="23.41178250"><ele>2185.0000</ele></trkpt>
      <trkpt lat="41.76099590" lon="23.41171670"><ele>2189.0000</ele></trkpt>
      <trkpt lat="41.76106800" lon="23.41173760"><ele>2191.0000</ele></trkpt>
      <trkpt lat="41.76114120" lon="23.41180730"><ele>2191.0000</ele></trkpt>
      <trkpt lat="41.76120980" lon="23.41180260"><ele>2194.0000</ele></trkpt>
      <trkpt lat="41.76128050" lon="23.41176610"><ele>2197.0000</ele></trkpt>
      <trkpt lat="41.76138750" lon="23.41181390"><ele>2199.0000</ele></trkpt>
      <trkpt lat="41.76146520" lon="23.41182650"><ele>2202.0000</ele></trkpt>
      <trkpt lat="41.76154150" lon="23.41187040"><ele>2203.0000</ele></trkpt>
      <trkpt lat="41.76163270" lon="23.41192010"><ele>2205.0000</ele></trkpt>
      <trkpt lat="41.76172130" lon="23.41195480"><ele>2208.0000</ele></trkpt>
      <trkpt lat="41.76181700" lon="23.41202120"><ele>2210.0000</ele></trkpt>
      <trkpt lat="41.76189570" lon="23.41204710"><ele>2213.0000</ele></trkpt>
      <trkpt lat="41.76196770" lon="23.41211610"><ele>2213.0000</ele></trkpt>
      <trkpt lat="41.76202700" lon="23.41223320"><ele>2212.0000</ele></trkpt>
      <trkpt lat="41.76206550" lon="23.41236060"><ele>2209.0000</ele></trkpt>
      <trkpt lat="41.76211170" lon="23.41250600"><ele>2206.0000</ele></trkpt>
      <trkpt lat="41.76219730" lon="23.41250770"><ele>2209.0000</ele></trkpt>
      <trkpt lat="41.76228680" lon="23.41255700"><ele>2212.0000</ele></trkpt>
      <trkpt lat="41.76234900" lon="23.41267130"><ele>2212.0000</ele></trkpt>
      <trkpt lat="41.76242430" lon="23.41273440"><ele>2213.0000</ele></trkpt>
      <trkpt lat="41.76248570" lon="23.41281230"><ele>2213.0000</ele></trkpt>
      <trkpt lat="41.76254960" lon="23.41288150"><ele>2213.0000</ele></trkpt>
      <trkpt lat="41.76260130" lon="23.41297570"><ele>2211.0000</ele></trkpt>
      <trkpt lat="41.76267840" lon="23.41304750"><ele>2211.0000</ele></trkpt>
      <trkpt lat="41.76274520" lon="23.41316270"><ele>2208.0000</ele></trkpt>
      <trkpt lat="41.76281940" lon="23.41313410"><ele>2210.0000</ele></trkpt>
      <trkpt lat="41.76289460" lon="23.41309660"><ele>2210.0000</ele></trkpt>
      <trkpt lat="41.76297330" lon="23.41306000"><ele>2212.0000</ele></trkpt>
      <trkpt lat="41.76303580" lon="23.41302620"><ele>2214.0000</ele></trkpt>
      <trkpt lat="41.76312400" lon="23.41305430"><ele>2209.0000</ele></trkpt>
      <trkpt lat="41.76321430" lon="23.41301170"><ele>2208.0000</ele></trkpt>
      <trkpt lat="41.76329910" lon="23.41297610"><ele>2209.0000</ele></trkpt>
      <trkpt lat="41.76336540" lon="23.41292670"><ele>2214.0000</ele></trkpt>
      <trkpt lat="41.76346520" lon="23.41291020"><ele>2216.0000</ele></trkpt>
      <trkpt lat="41.76355880" lon="23.41287810"><ele>2218.0000</ele></trkpt>
      <trkpt lat="41.76364480" lon="23.41284790"><ele>2219.0000</ele></trkpt>
      <trkpt lat="41.76374500" lon="23.41282590"><ele>2217.0000</ele></trkpt>
      <trkpt lat="41.76384140" lon="23.41283740"><ele>2214.0000</ele></trkpt>
      <trkpt lat="41.76393030" lon="23.41281290"><ele>2212.0000</ele></trkpt>
      <trkpt lat="41.76402580" lon="23.41282080"><ele>2209.0000</ele></trkpt>
      <trkpt lat="41.76409830" lon="23.41276260"><ele>2209.0000</ele></trkpt>
      <trkpt lat="41.76417960" lon="23.41275790"><ele>2207.0000</ele></trkpt>
      <trkpt lat="41.76425570" lon="23.41271430"><ele>2211.0000</ele></trkpt>
      <trkpt lat="41.76435050" lon="23.41268440"><ele>2213.0000</ele></trkpt>
      <trkpt lat="41.76443750" lon="23.41264780"><ele>2215.0000</ele></trkpt>
      <trkpt lat="41.76451430" lon="23.41266550"><ele>2214.0000</ele></trkpt>
      <trkpt lat="41.76460340" lon="23.41264460"><ele>2215.0000</ele></trkpt>
      <trkpt lat="41.76467020" lon="23.41261590"><ele>2216.0000</ele></trkpt>
      <trkpt lat="41.76476440" lon="23.41256780"><ele>2219.0000</ele></trkpt>
      <trkpt lat="41.76481440" lon="23.41250700"><ele>2223.0000</ele></trkpt>
      <trkpt lat="41.76487620" lon="23.41247450"><ele>2228.0000</ele></trkpt>
      <trkpt lat="41.76495720" lon="23.41242970"><ele>2235.0000</ele></trkpt>
      <trkpt lat="41.76503460" lon="23.41241840"><ele>2237.0000</ele></trkpt>
      <trkpt lat="41.76510940" lon="23.41240740"><ele>2238.0000</ele></trkpt>
      <trkpt lat="41.76518010" lon="23.41237080"><ele>2241.0000</ele></trkpt>
      <trkpt lat="41.76526460" lon="23.41236440"><ele>2241.0000</ele></trkpt>
      <trkpt lat="41.76532440" lon="23.41232430"><ele>2244.0000</ele></trkpt>
      <trkpt lat="41.76542380" lon="23.41229330"><ele>2245.0000</ele></trkpt>
      <trkpt lat="41.76551350" lon="23.41227370"><ele>2246.0000</ele></trkpt>
      <trkpt lat="41.76556220" lon="23.41220980"><ele>2248.0000</ele></trkpt>
      <trkpt lat="41.76562450" lon="23.41221380"><ele>2248.0000</ele></trkpt>
      <trkpt lat="41.76567070" lon="23.41221700"><ele>2248.0000</ele></trkpt>
      <trkpt lat="41.76570990" lon="23.41223660"><ele>2247.0000</ele></trkpt>
      <trkpt lat="41.76579540" lon="23.41223360"><ele>2247.0000</ele></trkpt>
      <trkpt lat="41.76583100" lon="23.41214100"><ele>2251.0000</ele></trkpt>
      <trkpt lat="41.76585320" lon="23.41203060"><ele>2256.0000</ele></trkpt>
      <trkpt lat="41.76592410" lon="23.41193610"><ele>2262.0000</ele></trkpt>
      <trkpt lat="41.76597460" lon="23.41186400"><ele>2267.0000</ele></trkpt>
      <trkpt lat="41.76604550" lon="23.41176470"><ele>2272.0000</ele></trkpt>
      <trkpt lat="41.76609050" lon="23.41172880"><ele>2274.0000</ele></trkpt>
      <trkpt lat="41.76610520" lon="23.41161900"><ele>2278.0000</ele></trkpt>
      <trkpt lat="41.76611700" lon="23.41152870"><ele>2281.0000</ele></trkpt>
      <trkpt lat="41.76613460" lon="23.41142400"><ele>2285.0000</ele></trkpt>
      <trkpt lat="41.76622690" lon="23.41139340"><ele>2288.0000</ele></trkpt>
      <trkpt lat="41.76624650" lon="23.41127410"><ele>2290.0000</ele></trkpt>
      <trkpt lat="41.76630580" lon="23.41121560"><ele>2293.0000</ele></trkpt>
      <trkpt lat="41.76632270" lon="23.41112740"><ele>2295.0000</ele></trkpt>
      <trkpt lat="41.76641520" lon="23.41108340"><ele>2298.0000</ele></trkpt>
      <trkpt lat="41.76650700" lon="23.41106840"><ele>2301.0000</ele></trkpt>
      <trkpt lat="41.76661840" lon="23.41105740"><ele>2306.0000</ele></trkpt>
      <trkpt lat="41.76672070" lon="23.41110120"><ele>2307.0000</ele></trkpt>
      <trkpt lat="41.76682030" lon="23.41116390"><ele>2309.0000</ele></trkpt>
      <trkpt lat="41.76692740" lon="23.41110310"><ele>2314.0000</ele></trkpt>
      <trkpt lat="41.76699310" lon="23.41118830"><ele>2319.0000</ele></trkpt>
      <trkpt lat="41.76705130" lon="23.41121040"><ele>2325.0000</ele></trkpt>
      <trkpt lat="41.76715210" lon="23.41125890"><ele>2334.0000</ele></trkpt>
      <trkpt lat="41.76722290" lon="23.41132770"><ele>2340.0000</ele></trkpt>
      <trkpt lat="41.76724990" lon="23.41145430"><ele>2338.0000</ele></trkpt>
      <trkpt lat="41.76731520" lon="23.41156310"><ele>2340.0000</ele></trkpt>
      <trkpt lat="41.76735580" lon="23.41166820"><ele>2340.0000</ele></trkpt>
      <trkpt lat="41.76739260" lon="23.41179140"><ele>2342.0000</ele></trkpt>
      <trkpt lat="41.76741210" lon="23.41191660"><ele>2344.0000</ele></trkpt>
      <trkpt lat="41.76743650" lon="23.41202170"><ele>2343.0000</ele></trkpt>
      <trkpt lat="41.76742370" lon="23.41212690"><ele>2339.0000</ele></trkpt>
      <trkpt lat="41.76744850" lon="23.41225700"><ele>2337.0000</ele></trkpt>
      <trkpt lat="41.76745620" lon="23.41237420"><ele>2337.0000</ele></trkpt>
      <trkpt lat="41.76749060" lon="23.41247910"><ele>2339.0000</ele></trkpt>
      <trkpt lat="41.76754450" lon="23.41256490"><ele>2341.0000</ele></trkpt>
      <trkpt lat="41.76753580" lon="23.41268280"><ele>2340.0000</ele></trkpt>
      <trkpt lat="41.76756020" lon="23.41281920"><ele>2339.0000</ele></trkpt>
      <trkpt lat="41.76757860" lon="23.41296470"><ele>2335.0000</ele></trkpt>
      <trkpt lat="41.76760570" lon="23.41306000"><ele>2333.0000</ele></trkpt>
      <trkpt lat="41.76766700" lon="23.41313610"><ele>2334.0000</ele></trkpt>
      <trkpt lat="41.76774910" lon="23.41322570"><ele>2336.0000</ele></trkpt>
      <trkpt lat="41.76783270" lon="23.41326940"><ele>2340.0000</ele></trkpt>
      <trkpt lat="41.76791940" lon="23.41329880"><ele>2344.0000</ele></trkpt>
      <trkpt lat="41.76801000" lon="23.41336010"><ele>2347.0000</ele></trkpt>
      <trkpt lat="41.76811230" lon="23.41339390"><ele>2351.0000</ele></trkpt>
      <trkpt lat="41.76820440" lon="23.41343860"><ele>2353.0000</ele></trkpt>
      <trkpt lat="41.76829000" lon="23.41349830"><ele>2354.0000</ele></trkpt>
      <trkpt lat="41.76837770" lon="23.41359610"><ele>2353.0000</ele></trkpt>
      <trkpt lat="41.76844130" lon="23.41368160"><ele>2351.0000</ele></trkpt>
      <trkpt lat="41.76850600" lon="23.41375640"><ele>2350.0000</ele></trkpt>
      <trkpt lat="41.76859560" lon="23.41382340"><ele>2351.0000</ele></trkpt>
      <trkpt lat="41.76866140" lon="23.41390450"><ele>2349.0000</ele></trkpt>
      <trkpt lat="41.76871200" lon="23.41398970"><ele>2347.0000</ele></trkpt>
      <trkpt lat="41.76880940" lon="23.41403270"><ele>2350.0000</ele></trkpt>
      <trkpt lat="41.76889090" lon="23.41407250"><ele>2351.0000</ele></trkpt>
      <trkpt lat="41.76897100" lon="23.41410880"><ele>2349.0000</ele></trkpt>
      <trkpt lat="41.76906000" lon="23.41411530"><ele>2348.0000</ele></trkpt>
      <trkpt lat="41.76904350" lon="23.41398970"><ele>2353.0000</ele></trkpt>
      <trkpt lat="41.76899660" lon="23.41388460"><ele>2357.0000</ele></trkpt>
      <trkpt lat="41.76899550" lon="23.41375740"><ele>2361.0000</ele></trkpt>
      <trkpt lat="41.76895190" lon="23.41363640"><ele>2367.0000</ele></trkpt>
      <trkpt lat="41.76891580" lon="23.41352250"><ele>2370.0000</ele></trkpt>
      <trkpt lat="41.76887580" lon="23.41340190"><ele>2373.0000</ele></trkpt>
      <trkpt lat="41.76883690" lon="23.41331310"><ele>2374.0000</ele></trkpt>
      <trkpt lat="41.76878890" lon="23.41320770"><ele>2377.0000</ele></trkpt>
      <trkpt lat="41.76867970" lon="23.41313910"><ele>2380.0000</ele></trkpt>
      <trkpt lat="41.76857770" lon="23.41309380"><ele>2381.0000</ele></trkpt>
      <trkpt lat="41.76860750" lon="23.41309810"><ele>2382.0000</ele></trkpt>
      <trkpt lat="41.76869480" lon="23.41314890"><ele>2380.0000</ele></trkpt>
      <trkpt lat="41.76878650" lon="23.41321140"><ele>2377.0000</ele></trkpt>
      <trkpt lat="41.76885050" lon="23.41321210"><ele>2377.0000</ele></trkpt>
      <trkpt lat="41.76887850" lon="23.41311670"><ele>2379.0000</ele></trkpt>
      <trkpt lat="41.76889370" lon="23.41299720"><ele>2380.0000</ele></trkpt>
      <trkpt lat="41.76889140" lon="23.41287910"><ele>2380.0000</ele></trkpt>
      <trkpt lat="41.76890050" lon="23.41277300"><ele>2379.0000</ele></trkpt>
      <trkpt lat="41.76889970" lon="23.41266800"><ele>2383.0000</ele></trkpt>
      <trkpt lat="41.76888770" lon="23.41255110"><ele>2387.0000</ele></trkpt>
      <trkpt lat="41.76886710" lon="23.41241130"><ele>2393.0000</ele></trkpt>
      <trkpt lat="41.76885200" lon="23.41232340"><ele>2397.0000</ele></trkpt>
      <trkpt lat="41.76884980" lon="23.41226880"><ele>2400.0000</ele></trkpt>
      <trkpt lat="41.76889130" lon="23.41221460"><ele>2405.0000</ele></trkpt>
      <trkpt lat="41.76894280" lon="23.41215550"><ele>2412.0000</ele></trkpt>
      <trkpt lat="41.76892650" lon="23.41208440"><ele>2421.0000</ele></trkpt>
      <trkpt lat="41.76894700" lon="23.41202150"><ele>2428.0000</ele></trkpt>
      <trkpt lat="41.76901450" lon="23.41193740"><ele>2433.0000</ele></trkpt>
      <trkpt lat="41.76911150" lon="23.41183480"><ele>2429.0000</ele></trkpt>
      <trkpt lat="41.76919030" lon="23.41176140"><ele>2421.0000</ele></trkpt>
      <trkpt lat="41.76925170" lon="23.41165160"><ele>2415.0000</ele></trkpt>
      <trkpt lat="41.76930010" lon="23.41153680"><ele>2413.0000</ele></trkpt>
      <trkpt lat="41.76937430" lon="23.41146660"><ele>2407.0000</ele></trkpt>
      <trkpt lat="41.76944150" lon="23.41137120"><ele>2404.0000</ele></trkpt>
      <trkpt lat="41.76951720" lon="23.41130110"><ele>2405.0000</ele></trkpt>
      <trkpt lat="41.76959230" lon="23.41120740"><ele>2406.0000</ele></trkpt>
      <trkpt lat="41.76966520" lon="23.41120390"><ele>2405.0000</ele></trkpt>
      <trkpt lat="41.76965700" lon="23.41106760"><ele>2409.0000</ele></trkpt>
      <trkpt lat="41.76967150" lon="23.41096630"><ele>2412.0000</ele></trkpt>
      <trkpt lat="41.76973840" lon="23.41088810"><ele>2411.0000</ele></trkpt>
      <trkpt lat="41.76975910" lon="23.41076540"><ele>2412.0000</ele></trkpt>
      <trkpt lat="41.76983730" lon="23.41068020"><ele>2410.0000</ele></trkpt>
      <trkpt lat="41.76987300" lon="23.41057600"><ele>2411.0000</ele></trkpt>
      <trkpt lat="41.76993070" lon="23.41046460"><ele>2412.0000</ele></trkpt>
      <trkpt lat="41.76988940" lon="23.41034910"><ele>2418.0000</ele></trkpt>
      <trkpt lat="41.76989980" lon="23.41019980"><ele>2420.0000</ele></trkpt>
      <trkpt lat="41.76991560" lon="23.41005600"><ele>2420.0000</ele></trkpt>
      <trkpt lat="41.76998600" lon="23.40994680"><ele>2416.0000</ele></trkpt>
      <trkpt lat="41.77002020" lon="23.40986690"><ele>2416.0000</ele></trkpt>
      <trkpt lat="41.77008270" lon="23.40979520"><ele>2417.0000</ele></trkpt>
      <trkpt lat="41.77013530" lon="23.40974530"><ele>2417.0000</ele></trkpt>
      <trkpt lat="41.77018580" lon="23.40963530"><ele>2415.0000</ele></trkpt>
      <trkpt lat="41.77022790" lon="23.40951770"><ele>2414.0000</ele></trkpt>
      <trkpt lat="41.77022060" lon="23.40941630"><ele>2413.0000</ele></trkpt>
      <trkpt lat="41.77029010" lon="23.40932150"><ele>2413.0000</ele></trkpt>
      <trkpt lat="41.77028180" lon="23.40924880"><ele>2413.0000</ele></trkpt>
      <trkpt lat="41.77027460" lon="23.40909300"><ele>2413.0000</ele></trkpt>
      <trkpt lat="41.77026750" lon="23.40895330"><ele>2414.0000</ele></trkpt>
      <trkpt lat="41.77024220" lon="23.40880930"><ele>2415.0000</ele></trkpt>
      <trkpt lat="41.77024040" lon="23.40865990"><ele>2416.0000</ele></trkpt>
      <trkpt lat="41.77026400" lon="23.40854210"><ele>2416.0000</ele></trkpt>
      <trkpt lat="41.77021190" lon="23.40844490"><ele>2418.0000</ele></trkpt>
      <trkpt lat="41.77020660" lon="23.40827020"><ele>2420.0000</ele></trkpt>
      <trkpt lat="41.77020280" lon="23.40811490"><ele>2423.0000</ele></trkpt>
      <trkpt lat="41.77017760" lon="23.40801710"><ele>2423.0000</ele></trkpt>
      <trkpt lat="41.77017050" lon="23.40788350"><ele>2423.0000</ele></trkpt>
      <trkpt lat="41.77016610" lon="23.40775760"><ele>2422.0000</ele></trkpt>
      <trkpt lat="41.77016090" lon="23.40761920"><ele>2421.0000</ele></trkpt>
      <trkpt lat="41.77012840" lon="23.40751280"><ele>2419.0000</ele></trkpt>
      <trkpt lat="41.77014840" lon="23.40742140"><ele>2418.0000</ele></trkpt>
      <trkpt lat="41.77022770" lon="23.40731680"><ele>2417.0000</ele></trkpt>
      <trkpt lat="41.77023190" lon="23.40720310"><ele>2418.0000</ele></trkpt>
      <trkpt lat="41.77026500" lon="23.40710480"><ele>2420.0000</ele></trkpt>
      <trkpt lat="41.77035840" lon="23.40700880"><ele>2424.0000</ele></trkpt>
      <trkpt lat="41.77045370" lon="23.40688840"><ele>2428.0000</ele></trkpt>
      <trkpt lat="41.77047500" lon="23.40674080"><ele>2432.0000</ele></trkpt>
    </trkseg>
<trkseg>
<trkpt lat="41.770527511370894" lon="23.406452536582947"><ele>2436.89</ele><time></time></trkpt>
<trkpt lat="41.77058752459688" lon="23.40636134147644"><ele>2437.44</ele><time></time></trkpt>
<trkpt lat="41.77061953162776" lon="23.406195044517517"><ele>2437.9</ele><time></time></trkpt>
<trkpt lat="41.770659540393936" lon="23.40608775615692"><ele>2438.8</ele><time></time></trkpt>
<trkpt lat="41.770751560461406" lon="23.406066298484802"><ele>2442.25</ele><time></time></trkpt>
<trkpt lat="41.77083557866861" lon="23.4061199426651"><ele>2446.84</ele><time></time></trkpt>
<trkpt lat="41.770903593327134" lon="23.40608239173889"><ele>2449.96</ele><time></time></trkpt>
<trkpt lat="41.77086758557573" lon="23.40585172176361"><ele>2448.66</ele><time></time></trkpt>
<trkpt lat="41.770839579532876" lon="23.405712246894836"><ele>2447.19</ele><time></time></trkpt>
<trkpt lat="41.77083557866861" lon="23.405567407608032"><ele>2448.22</ele><time></time></trkpt>
<trkpt lat="41.770839579532876" lon="23.40540111064911"><ele>2449.71</ele><time></time></trkpt>
<trkpt lat="41.770847581260625" lon="23.405234813690186"><ele>2451.73</ele><time></time></trkpt>
<trkpt lat="41.77085558298742" lon="23.4051114320755"><ele>2453.32</ele><time></time></trkpt>
<trkpt lat="41.770875587300004" lon="23.404982686042786"><ele>2455.72</ele><time></time></trkpt>
<trkpt lat="41.770879588161776" lon="23.40487003326416"><ele>2457.76</ele><time></time></trkpt>
<trkpt lat="41.77097560876937" lon="23.4048593044281"><ele>2463.42</ele><time></time></trkpt>
<trkpt lat="41.77107162923324" lon="23.40483248233795"><ele>2468.95</ele><time></time></trkpt>
<trkpt lat="41.77114764533185" lon="23.404768109321594"><ele>2474.56</ele><time></time></trkpt>
<trkpt lat="41.771247666377015" lon="23.404741287231445"><ele>2480.72</ele><time></time></trkpt>
<trkpt lat="41.771327683100864" lon="23.404735922813416"><ele>2485.16</ele><time></time></trkpt>
<trkpt lat="41.77141970220987" lon="23.404719829559326"><ele>2490.89</ele><time></time></trkpt>
<trkpt lat="41.771495717896" lon="23.404698371887207"><ele>2496.61</ele><time></time></trkpt>
<trkpt lat="41.77153172529486" lon="23.404757380485535"><ele>2497.39</ele><time></time></trkpt>
<trkpt lat="41.771667753063596" lon="23.404693007469177"><ele>2508.03</ele><time></time></trkpt>
<trkpt lat="41.77180778134778" lon="23.404714465141296"><ele>2516.94</ele><time></time></trkpt>
<trkpt lat="41.771871794175894" lon="23.404693007469177"><ele>2521.23</ele><time></time></trkpt>
<trkpt lat="41.771939807735734" lon="23.40463399887085"><ele>2526.74</ele><time></time></trkpt>
<trkpt lat="41.77201182201465" lon="23.404553532600403"><ele>2532.42</ele><time></time></trkpt>
<trkpt lat="41.772055830700815" lon="23.40440332889557"><ele>2537.64</ele><time></time></trkpt>
<trkpt lat="41.772019823596196" lon="23.404290676116943"><ele>2537.08</ele><time></time></trkpt>
<trkpt lat="41.771999819640435" lon="23.404076099395752"><ele>2542.79</ele><time></time></trkpt>
<trkpt lat="41.77195981171021" lon="23.40388834476471"><ele>2547.1</ele><time></time></trkpt>
<trkpt lat="41.77196781329825" lon="23.403738141059875"><ele>2552.66</ele><time></time></trkpt>
<trkpt lat="41.772063832276906" lon="23.403469920158386"><ele>2565.04</ele><time></time></trkpt>
<trkpt lat="41.7719758148853" lon="23.403400182724"><ele>2564.46</ele><time></time></trkpt>
<trkpt lat="41.771887797372926" lon="23.40338408946991"><ele>2562.06</ele><time></time></trkpt>
<trkpt lat="41.77179977973978" lon="23.403325080871582"><ele>2560.92</ele><time></time></trkpt>
<trkpt lat="41.77169975955552" lon="23.403217792510986"><ele>2562.17</ele><time></time></trkpt>
<trkpt lat="41.77163974737009" lon="23.40308368206024"><ele>2566.37</ele><time></time></trkpt>
<trkpt lat="41.7715997392153" lon="23.402965664863586"><ele>2570.16</ele><time></time></trkpt>
<trkpt lat="41.77155973103554" lon="23.402799367904663"><ele>2575.01</ele><time></time></trkpt>
<trkpt lat="41.7714997187191" lon="23.40267062187195"><ele>2577.98</ele><time></time></trkpt>
<trkpt lat="41.771459710476954" lon="23.402477502822876"><ele>2583.44</ele><time></time></trkpt>
<trkpt lat="41.771443707173106" lon="23.402257561683655"><ele>2590.36</ele><time></time></trkpt>
<trkpt lat="41.77137569308723" lon="23.402075171470642"><ele>2594.13</ele><time></time></trkpt>
<trkpt lat="41.771347687266214" lon="23.401973247528076"><ele>2597</ele><time></time></trkpt>
<trkpt lat="41.77140769972487" lon="23.401688933372498"><ele>2603.33</ele><time></time></trkpt>
<trkpt lat="41.771511721186876" lon="23.401431441307068"><ele>2610.95</ele><time></time></trkpt>
<trkpt lat="41.77150772036454" lon="23.401232957839966"><ele>2616</ele><time></time></trkpt>
<trkpt lat="41.77151572200897" lon="23.401050567626953"><ele>2620.63</ele><time></time></trkpt>
<trkpt lat="41.771519722830824" lon="23.40088427066803"><ele>2624.9</ele><time></time></trkpt>
<trkpt lat="41.771519722830824" lon="23.400685787200928"><ele>2629.33</ele><time></time></trkpt>
<trkpt lat="41.77150371954194" lon="23.400444388389587"><ele>2621.0078125</ele><time></time></trkpt>
<trkpt lat="41.77147571377681" lon="23.400326371192932"><ele>2623.42529296875</ele><time></time></trkpt>
<trkpt lat="41.771539726936304" lon="23.400181531906128"><ele>2627.31787109375</ele><time></time></trkpt>
<trkpt lat="41.771495717896" lon="23.3999240398407"><ele>2632.269775390625</ele><time></time></trkpt>
<trkpt lat="41.771443707173106" lon="23.399725556373596"><ele>2635.722412109375</ele><time></time></trkpt>
<trkpt lat="41.77146771212738" lon="23.399569988250732"><ele>2639.1474609375</ele><time></time></trkpt>
<trkpt lat="41.7714997187191" lon="23.39940369129181"><ele>2642.292236328125</ele><time></time></trkpt>
<trkpt lat="41.77153172529486" lon="23.399280309677124"><ele>2644.347900390625</ele><time></time></trkpt>
<trkpt lat="41.771523723652415" lon="23.399071097373962"><ele>2647.601806640625</ele><time></time></trkpt>
<trkpt lat="41.77159573839844" lon="23.398953080177307"><ele>2649.86376953125</ele><time></time></trkpt>
<trkpt lat="41.771619743295794" lon="23.398786783218384"><ele>2652.442626953125</ele><time></time></trkpt>
<trkpt lat="41.77163174574113" lon="23.398518562316895"><ele>2656.67529296875</ele><time></time></trkpt>
<trkpt lat="41.77163974737009" lon="23.398298621177673"><ele>2660.121826171875</ele><time></time></trkpt>
<trkpt lat="41.7716437481842" lon="23.39814305305481"><ele>2662.60107421875</ele><time></time></trkpt>
<trkpt lat="41.771647748998056" lon="23.398014307022095"><ele>2663.862548828125</ele><time></time></trkpt>
<trkpt lat="41.771587736763976" lon="23.397837281227112"><ele>2665.309814453125</ele><time></time></trkpt>
<trkpt lat="41.771619743295794" lon="23.397708535194397"><ele>2666.56005859375</ele><time></time></trkpt>
<trkpt lat="41.771619743295794" lon="23.397569060325623"><ele>2667.852294921875</ele><time></time></trkpt>
<trkpt lat="41.77163574655572" lon="23.39741349220276"><ele>2668.962646484375</ele><time></time></trkpt>
<trkpt lat="41.771619743295794" lon="23.397220373153687"><ele>2668.782470703125</ele><time></time></trkpt>
<trkpt lat="41.771675754688076" lon="23.397070169448853"><ele>2668.542236328125</ele><time></time></trkpt>
<trkpt lat="41.771675754688076" lon="23.396936058998108"><ele>2668.384033203125</ele><time></time></trkpt>
<trkpt lat="41.77171176198586" lon="23.396769762039185"><ele>2668.0908203125</ele><time></time></trkpt>
<trkpt lat="41.771410" lon="23.396839999999997"><ele>2679</ele><time>2010-01-01T00:57:27Z</time></trkpt>
<trkpt lat="41.771260" lon="23.39695000000006"><ele>2683</ele><time>2010-01-01T00:57:34Z</time></trkpt>
<trkpt lat="41.771260" lon="23.396929999999998"><ele>2683</ele><time>2010-01-01T00:57:34Z</time></trkpt>
<trkpt lat="41.771130" lon="23.39686000000006"><ele>2685</ele><time>2010-01-01T00:57:40Z</time></trkpt>
<trkpt lat="41.770810" lon="23.39686000000006"><ele>2693</ele><time>2010-01-01T00:57:53Z</time></trkpt>
<trkpt lat="41.770490" lon="23.396819999999934"><ele>2703</ele><time>2010-01-01T00:58:06Z</time></trkpt>
<trkpt lat="41.770310" lon="23.39686000000006"><ele>2710</ele><time>2010-01-01T00:58:13Z</time></trkpt>
<trkpt lat="41.770230" lon="23.396929999999998"><ele>2715</ele><time>2010-01-01T00:58:17Z</time></trkpt>
<trkpt lat="41.770210" lon="23.39698999999996"><ele>2716</ele><time>2010-01-01T00:58:19Z</time></trkpt>
<trkpt lat="41.770160" lon="23.397029999999972"><ele>2719</ele><time>2010-01-01T00:58:21Z</time></trkpt>
<trkpt lat="41.770100" lon="23.397029999999972"><ele>2722</ele><time>2010-01-01T00:58:24Z</time></trkpt>
<trkpt lat="41.770080" lon="23.397010000000023"><ele>2722</ele><time>2010-01-01T00:58:25Z</time></trkpt>
<trkpt lat="41.770010" lon="23.39707999999996"><ele>2726</ele><time>2010-01-01T00:58:28Z</time></trkpt>
<trkpt lat="41.769950" lon="23.39707999999996"><ele>2728</ele><time>2010-01-01T00:58:30Z</time></trkpt>
<trkpt lat="41.769860" lon="23.397119999999973"><ele>2732</ele><time>2010-01-01T00:58:34Z</time></trkpt>
<trkpt lat="41.769840" lon="23.397199999999998"><ele>2734</ele><time>2010-01-01T00:58:37Z</time></trkpt>
<trkpt lat="41.769670" lon="23.39731000000006"><ele>2746</ele><time>2010-01-01T00:58:44Z</time></trkpt>
<trkpt lat="41.769630" lon="23.39740000000006"><ele>2752</ele><time>2010-01-01T00:58:47Z</time></trkpt>
<trkpt lat="41.769560" lon="23.39740000000006"><ele>2755</ele><time>2010-01-01T00:58:50Z</time></trkpt>
<trkpt lat="41.769560" lon="23.39733000000001"><ele>2753</ele><time>2010-01-01T00:58:52Z</time></trkpt>
<trkpt lat="41.769520" lon="23.397289999999998"><ele>2755</ele><time>2010-01-01T00:58:54Z</time></trkpt>
<trkpt lat="41.769480" lon="23.397289999999998"><ele>2757</ele><time>2010-01-01T00:58:56Z</time></trkpt>
<trkpt lat="41.769500" lon="23.397269999999935"><ele>2755</ele><time>2010-01-01T00:58:57Z</time></trkpt>
<trkpt lat="41.769430" lon="23.397199999999998"><ele>2758</ele><time>2010-01-01T00:59:00Z</time></trkpt>
<trkpt lat="41.769350" lon="23.397179999999935"><ele>2760</ele><time>2010-01-01T00:59:04Z</time></trkpt>
<trkpt lat="41.769310" lon="23.397230000000036"><ele>2763</ele><time>2010-01-01T00:59:06Z</time></trkpt>
<trkpt lat="41.769200" lon="23.397269999999935"><ele>2767</ele><time>2010-01-01T00:59:10Z</time></trkpt>
<trkpt lat="41.769220" lon="23.397269999999935"><ele>2767</ele><time>2010-01-01T00:59:11Z</time></trkpt>
<trkpt lat="41.769130" lon="23.39742000000001"><ele>2775</ele><time>2010-01-01T00:59:17Z</time></trkpt>
<trkpt lat="41.769090" lon="23.39740000000006"><ele>2778</ele><time>2010-01-01T00:59:19Z</time></trkpt>
<trkpt lat="41.769030" lon="23.39740000000006"><ele>2782</ele><time>2010-01-01T00:59:21Z</time></trkpt>
<trkpt lat="41.769010" lon="23.39742000000001"><ele>2784</ele><time>2010-01-01T00:59:22Z</time></trkpt>
<trkpt lat="41.768980" lon="23.397500000000036"><ele>2788</ele><time>2010-01-01T00:59:25Z</time></trkpt>
<trkpt lat="41.768940" lon="23.397569999999973"><ele>2794</ele><time>2010-01-01T00:59:27Z</time></trkpt>
<trkpt lat="41.768880" lon="23.397740"><ele>2804</ele><time>2010-01-01T00:59:33Z</time></trkpt>
<trkpt lat="41.768880" lon="23.397830"><ele>2806</ele><time>2010-01-01T00:59:36Z</time></trkpt>
<trkpt lat="41.768750" lon="23.397960000000012"><ele>2815</ele><time>2010-01-01T00:59:42Z</time></trkpt>
<trkpt lat="41.768680" lon="23.398109999999974"><ele>2818</ele><time>2010-01-01T00:59:47Z</time></trkpt>
<trkpt lat="41.768640" lon="23.398149999999987"><ele>2820</ele><time>2010-01-01T00:59:49Z</time></trkpt>
<trkpt lat="41.768510" lon="23.398410000000013"><ele>2832</ele><time>2010-01-01T00:59:59Z</time></trkpt>
<trkpt lat="41.768430" lon="23.398509999999987"><ele>2840</ele><time>2010-01-01T01:00:03Z</time></trkpt>
<trkpt lat="41.768360" lon="23.398660000000064"><ele>2850</ele><time>2010-01-01T01:00:08Z</time></trkpt>
<trkpt lat="41.768340" lon="23.398750000000064"><ele>2855</ele><time>2010-01-01T01:00:11Z</time></trkpt>
<trkpt lat="41.768300" lon="23.398810000000026"><ele>2860</ele><time>2010-01-01T01:00:14Z</time></trkpt>
<trkpt lat="41.768230" lon="23.398860000000013"><ele>2867</ele><time>2010-01-01T01:00:17Z</time></trkpt>
<trkpt lat="41.768210" lon="23.398990000000026"><ele>2872</ele><time>2010-01-01T01:00:21Z</time></trkpt>
<trkpt lat="41.768140" lon="23.399040000000014"><ele>2877</ele><time>2010-01-01T01:00:24Z</time></trkpt>
<trkpt lat="41.768100" lon="23.399110000000064"><ele>2879</ele><time>2010-01-01T01:00:27Z</time></trkpt>
<trkpt lat="41.768060" lon="23.399090"><ele>2880</ele><time>2010-01-01T01:00:28Z</time></trkpt>
<trkpt lat="41.768040" lon="23.398990000000026"><ele>2881</ele><time>2010-01-01T01:00:31Z</time></trkpt>
<trkpt lat="41.767980" lon="23.398900000000026"><ele>2885</ele><time>2010-01-01T01:00:35Z</time></trkpt>
<trkpt lat="41.767950" lon="23.398900000000026"><ele>2886</ele><time>2010-01-01T01:00:36Z</time></trkpt>
<trkpt lat="41.767910" lon="23.398860000000013"><ele>2887</ele><time>2010-01-01T01:00:38Z</time></trkpt>
<trkpt lat="41.767890" lon="23.398730"><ele>2884</ele><time>2010-01-01T01:00:42Z</time></trkpt>
<trkpt lat="41.767830" lon="23.398709999999937"><ele>2887</ele><time>2010-01-01T01:00:45Z</time></trkpt>
<trkpt lat="41.767740" lon="23.398789999999963"><ele>2894</ele><time>2010-01-01T01:00:49Z</time></trkpt>
<trkpt lat="41.767630" lon="23.398829999999975"><ele>2899</ele><time>2010-01-01T01:00:54Z</time></trkpt>
<trkpt lat="41.767300" lon="23.398820"><ele>2910</ele><time>2010-01-01T01:01:07Z</time></trkpt>
<trkpt lat="41.767220" lon="23.398879999999963"><ele>2914</ele><time>2010-01-01T01:01:10Z</time></trkpt>
<trkpt lat="41.767140" lon="23.398919999999976"><ele>2914</ele><time>2010-01-01T01:01:14Z</time></trkpt>
</trkseg>
</trk>
</gpx>
