<?xml version="1.0" encoding="utf-8"?><gpx creator="Garmin Desktop App" version="1.1" xsi:schemaLocation="http://www.topografix.com/GPX/1/1 http://www.topografix.com/GPX/1/1/gpx.xsd http://www.garmin.com/xmlschemas/WaypointExtension/v1 http://www8.garmin.com/xmlschemas/WaypointExtensionv1.xsd http://www.garmin.com/xmlschemas/TrackPointExtension/v1 http://www.garmin.com/xmlschemas/TrackPointExtensionv1.xsd http://www.garmin.com/xmlschemas/GpxExtensions/v3 http://www8.garmin.com/xmlschemas/GpxExtensionsv3.xsd http://www.garmin.com/xmlschemas/ActivityExtension/v1 http://www8.garmin.com/xmlschemas/ActivityExtensionv1.xsd http://www.garmin.com/xmlschemas/AdventuresExtensions/v1 http://www8.garmin.com/xmlschemas/AdventuresExtensionv1.xsd http://www.garmin.com/xmlschemas/PressureExtension/v1 http://www.garmin.com/xmlschemas/PressureExtensionv1.xsd http://www.garmin.com/xmlschemas/TripExtensions/v1 http://www.garmin.com/xmlschemas/TripExtensionsv1.xsd http://www.garmin.com/xmlschemas/TripMetaDataExtensions/v1 http://www.garmin.com/xmlschemas/TripMetaDataExtensionsv1.xsd http://www.garmin.com/xmlschemas/ViaPointTransportationModeExtensions/v1 http://www.garmin.com/xmlschemas/ViaPointTransportationModeExtensionsv1.xsd http://www.garmin.com/xmlschemas/CreationTimeExtension/v1 http://www.garmin.com/xmlschemas/CreationTimeExtensionsv1.xsd http://www.garmin.com/xmlschemas/AccelerationExtension/v1 http://www.garmin.com/xmlschemas/AccelerationExtensionv1.xsd http://www.garmin.com/xmlschemas/PowerExtension/v1 http://www.garmin.com/xmlschemas/PowerExtensionv1.xsd http://www.garmin.com/xmlschemas/VideoExtension/v1 http://www.garmin.com/xmlschemas/VideoExtensionv1.xsd" xmlns="http://www.topografix.com/GPX/1/1" xmlns:xsi="http://www.w3.org/2001/XMLSchema-instance" xmlns:wptx1="http://www.garmin.com/xmlschemas/WaypointExtension/v1" xmlns:gpxtrx="http://www.garmin.com/xmlschemas/GpxExtensions/v3" xmlns:gpxtpx="http://www.garmin.com/xmlschemas/TrackPointExtension/v1" xmlns:gpxx="http://www.garmin.com/xmlschemas/GpxExtensions/v3" xmlns:trp="http://www.garmin.com/xmlschemas/TripExtensions/v1" xmlns:adv="http://www.garmin.com/xmlschemas/AdventuresExtensions/v1" xmlns:prs="http://www.garmin.com/xmlschemas/PressureExtension/v1" xmlns:tmd="http://www.garmin.com/xmlschemas/TripMetaDataExtensions/v1" xmlns:vptm="http://www.garmin.com/xmlschemas/ViaPointTransportationModeExtensions/v1" xmlns:ctx="http://www.garmin.com/xmlschemas/CreationTimeExtension/v1" xmlns:gpxacc="http://www.garmin.com/xmlschemas/AccelerationExtension/v1" xmlns:gpxpx="http://www.garmin.com/xmlschemas/PowerExtension/v1" xmlns:vidx1="http://www.garmin.com/xmlschemas/VideoExtension/v1">

  <metadata>
    <link href="http://www.garmin.com">
      <text>Garmin International</text>
    </link>
    <bounds maxlat="42.701475620269775" maxlon="24.982759952545166" minlat="42.652852535247803" minlon="24.925360679626465" />
  </metadata>

  <wpt lat="42.673516273498535" lon="24.968125820159912">
    <ele>1021.5</ele>
    <name>Water 1</name>
    <cmt>Вода 1</cmt>
  </wpt>

  <wpt lat="42.694330215454102" lon="24.951925277709961">
    <ele>1108.78515625</ele>
    <name>Water 2</name>
    <cmt>Вода 2</cmt>
  </wpt>

  <wpt lat="42.696304321289063" lon="24.946861267089844">
    <ele>1132.72265625</ele>
    <name>Water 3</name>
    <cmt>Вода 3</cmt>
  </wpt>

  <wpt lat="42.682936191558838" lon="24.959628582000732">
    <ele>1141.67578125</ele>
    <name>Fork 1 - forward</name>
    <cmt>Разклон 1 - направо</cmt>
    <desc>м. Долен Параджик</desc>
  </wpt>

  <wpt lat="42.698531644418836" lon="24.927186677232385">
    <ele>1451.26953125</ele>
    <name>Fork 2 - right</name>
    <cmt>Разклон 2 - надясно</cmt>
  </wpt>

  <wpt lat="42.685017585754395" lon="24.956474304199219">
    <ele>1169.4375</ele>
    <name>Panorama</name>
    <cmt>Панорама</cmt>
    <desc>Гледка към Джендема</desc>
  </wpt>

  <wpt lat="42.696561813354492" lon="24.93098258972168">
    <ele>1430.8515625</ele>
    <name>Ray lodge</name>
    <cmt>х. Рай</cmt>
  </wpt>

  <wpt lat="42.701475620269775" lon="24.925446510314941">
    <ele>1687.9765625</ele>
    <name>Waterfall</name>
    <cmt>вод. Райското пръскало</cmt>
  </wpt>

  <trk>
    <name>kalofer-raiskoto-praskalo</name>
    <trkseg>
      <trkpt lat="42.652852535247803" lon="24.981536865234375"><ele>725.6796875</ele></trkpt>
      <trkpt lat="42.653625011444092" lon="24.981987476348877"><ele>727.18359375</ele></trkpt>
      <trkpt lat="42.653989791870117" lon="24.982223510742188"><ele>729.64453125</ele></trkpt>
      <trkpt lat="42.654118537902832" lon="24.982287883758545"><ele>730.19140625</ele></trkpt>
      <trkpt lat="42.654268741607666" lon="24.982395172119141"><ele>730.875</ele></trkpt>
      <trkpt lat="42.654397487640381" lon="24.982459545135498"><ele>731.734375</ele></trkpt>
      <trkpt lat="42.654569149017334" lon="24.982523918151855"><ele>733.03125</ele></trkpt>
      <trkpt lat="42.655363082885742" lon="24.982759952545166"><ele>739.79296875</ele></trkpt>
      <trkpt lat="42.655642032623291" lon="24.982717037200928"><ele>739.66015625</ele></trkpt>
      <trkpt lat="42.655749320983887" lon="24.98265266418457"><ele>739.89453125</ele></trkpt>
      <trkpt lat="42.656006813049316" lon="24.982395172119141"><ele>739.7265625</ele></trkpt>
      <trkpt lat="42.656092643737793" lon="24.982244968414307"><ele>739.03515625</ele></trkpt>
      <trkpt lat="42.65617847442627" lon="24.982073307037354"><ele>737.890625</ele></trkpt>
      <trkpt lat="42.656221389770508" lon="24.981944561004639"><ele>736.78125</ele></trkpt>
      <trkpt lat="42.656221389770508" lon="24.98166561126709"><ele>735.08203125</ele></trkpt>
      <trkpt lat="42.65617847442627" lon="24.981536865234375"><ele>734.75390625</ele></trkpt>
      <trkpt lat="42.65615701675415" lon="24.981386661529541"><ele>734.2578125</ele></trkpt>
      <trkpt lat="42.656114101409912" lon="24.981236457824707"><ele>733.33203125</ele></trkpt>
      <trkpt lat="42.656092643737793" lon="24.981107711791992"><ele>732.80078125</ele></trkpt>
      <trkpt lat="42.656114101409912" lon="24.981000423431396"><ele>732.2890625</ele></trkpt>
      <trkpt lat="42.65615701675415" lon="24.980893135070801"><ele>731.4921875</ele></trkpt>
      <trkpt lat="42.656221389770508" lon="24.980850219726563"><ele>730.98046875</ele></trkpt>
      <trkpt lat="42.656478881835938" lon="24.980764389038086"><ele>732.79296875</ele></trkpt>
      <trkpt lat="42.657015323638916" lon="24.980571269989014"><ele>740.328125</ele></trkpt>
      <trkpt lat="42.657337188720703" lon="24.980463981628418"><ele>740.640625</ele></trkpt>
      <trkpt lat="42.657980918884277" lon="24.980206489562988"><ele>743.97265625</ele></trkpt>
      <trkpt lat="42.658624649047852" lon="24.979863166809082"><ele>745.0078125</ele></trkpt>
      <trkpt lat="42.658817768096924" lon="24.97967004776001"><ele>744.7890625</ele></trkpt>
      <trkpt lat="42.659289836883545" lon="24.979434013366699"><ele>745.640625</ele></trkpt>
      <trkpt lat="42.659461498260498" lon="24.979369640350342"><ele>744.71484375</ele></trkpt>
      <trkpt lat="42.659740447998047" lon="24.979219436645508"><ele>743.85546875</ele></trkpt>
      <trkpt lat="42.660019397735596" lon="24.979090690612793"><ele>744.61328125</ele></trkpt>
      <trkpt lat="42.660491466522217" lon="24.978983402252197"><ele>744.61328125</ele></trkpt>
      <trkpt lat="42.660641670227051" lon="24.978876113891602"><ele>744.61328125</ele></trkpt>
      <trkpt lat="42.660791873931885" lon="24.978811740875244"><ele>745.078125</ele></trkpt>
      <trkpt lat="42.660748958587646" lon="24.97866153717041"><ele>744.61328125</ele></trkpt>
      <trkpt lat="42.660770416259766" lon="24.978597164154053"><ele>744.61328125</ele></trkpt>
      <trkpt lat="42.660706043243408" lon="24.978446960449219"><ele>744.61328125</ele></trkpt>
      <trkpt lat="42.660727500915527" lon="24.978318214416504"><ele>747.33984375</ele></trkpt>
      <trkpt lat="42.660770416259766" lon="24.978017807006836"><ele>758.5078125</ele></trkpt>
      <trkpt lat="42.660813331604004" lon="24.977803230285645"><ele>768.140625</ele></trkpt>
      <trkpt lat="42.660748958587646" lon="24.977717399597168"><ele>773.53515625</ele></trkpt>
      <trkpt lat="42.660727500915527" lon="24.977588653564453"><ele>781.5703125</ele></trkpt>
      <trkpt lat="42.660598754882813" lon="24.977695941925049"><ele>774.59765625</ele></trkpt>
      <trkpt lat="42.660534381866455" lon="24.977567195892334"><ele>781.51171875</ele></trkpt>
      <trkpt lat="42.660555839538574" lon="24.977352619171143"><ele>788.45703125</ele></trkpt>
      <trkpt lat="42.660577297210693" lon="24.977202415466309"><ele>794.0625</ele></trkpt>
      <trkpt lat="42.660512924194336" lon="24.977180957794189"><ele>794.62890625</ele></trkpt>
      <trkpt lat="42.660448551177979" lon="24.976987838745117"><ele>802.8359375</ele></trkpt>
      <trkpt lat="42.660362720489502" lon="24.976773262023926"><ele>811.33984375</ele></trkpt>
      <trkpt lat="42.660212516784668" lon="24.976623058319092"><ele>816.15625</ele></trkpt>
      <trkpt lat="42.660105228424072" lon="24.97642993927002"><ele>819.77734375</ele></trkpt>
      <trkpt lat="42.660062313079834" lon="24.976279735565186"><ele>822.48828125</ele></trkpt>
      <trkpt lat="42.659933567047119" lon="24.976150989532471"><ele>825.18359375</ele></trkpt>
      <trkpt lat="42.659804821014404" lon="24.975957870483398"><ele>828.01171875</ele></trkpt>
      <trkpt lat="42.659804821014404" lon="24.975850582122803"><ele>828.3359375</ele></trkpt>
      <trkpt lat="42.659869194030762" lon="24.975721836090088"><ele>827.953125</ele></trkpt>
      <trkpt lat="42.660019397735596" lon="24.975507259368896"><ele>830.5625</ele></trkpt>
      <trkpt lat="42.660126686096191" lon="24.97542142868042"><ele>833.04296875</ele></trkpt>
      <trkpt lat="42.660255432128906" lon="24.975442886352539"><ele>834.45703125</ele></trkpt>
      <trkpt lat="42.660384178161621" lon="24.975507259368896"><ele>836.1484375</ele></trkpt>
      <trkpt lat="42.660448551177979" lon="24.975485801696777"><ele>836.7578125</ele></trkpt>
      <trkpt lat="42.660512924194336" lon="24.975399971008301"><ele>837.25</ele></trkpt>
      <trkpt lat="42.660770416259766" lon="24.975335597991943"><ele>839.96484375</ele></trkpt>
      <trkpt lat="42.661070823669434" lon="24.97567892074585"><ele>842.70703125</ele></trkpt>
      <trkpt lat="42.661199569702148" lon="24.975829124450684"><ele>841.3828125</ele></trkpt>
      <trkpt lat="42.661328315734863" lon="24.975936412811279"><ele>840.609375</ele></trkpt>
      <trkpt lat="42.661435604095459" lon="24.976022243499756"><ele>839.49609375</ele></trkpt>
      <trkpt lat="42.661521434783936" lon="24.976065158843994"><ele>838.8671875</ele></trkpt>
      <trkpt lat="42.66167163848877" lon="24.976065158843994"><ele>839.58203125</ele></trkpt>
      <trkpt lat="42.66190767288208" lon="24.976000785827637"><ele>841.109375</ele></trkpt>
      <trkpt lat="42.662079334259033" lon="24.975936412811279"><ele>842.23046875</ele></trkpt>
      <trkpt lat="42.662208080291748" lon="24.975893497467041"><ele>843.8828125</ele></trkpt>
      <trkpt lat="42.662315368652344" lon="24.975829124450684"><ele>845.2421875</ele></trkpt>
      <trkpt lat="42.662379741668701" lon="24.975721836090088"><ele>846.51953125</ele></trkpt>
      <trkpt lat="42.662422657012939" lon="24.975593090057373"><ele>847.609375</ele></trkpt>
      <trkpt lat="42.662465572357178" lon="24.975464344024658"><ele>847.46484375</ele></trkpt>
      <trkpt lat="42.662551403045654" lon="24.975378513336182"><ele>847.2578125</ele></trkpt>
      <trkpt lat="42.662615776062012" lon="24.975335597991943"><ele>847.00390625</ele></trkpt>
      <trkpt lat="42.662744522094727" lon="24.975378513336182"><ele>847.33203125</ele></trkpt>
      <trkpt lat="42.662873268127441" lon="24.975442886352539"><ele>847.828125</ele></trkpt>
      <trkpt lat="42.663002014160156" lon="24.975528717041016"><ele>848.2265625</ele></trkpt>
      <trkpt lat="42.66315221786499" lon="24.97565746307373"><ele>849.1328125</ele></trkpt>
      <trkpt lat="42.663323879241943" lon="24.975764751434326"><ele>852.734375</ele></trkpt>
      <trkpt lat="42.663452625274658" lon="24.975829124450684"><ele>856.7421875</ele></trkpt>
      <trkpt lat="42.663710117340088" lon="24.975957870483398"><ele>861.65625</ele></trkpt>
      <trkpt lat="42.663794690743089" lon="24.976004809141159"><ele>862.98828125</ele></trkpt>
      <trkpt lat="42.66390323638916" lon="24.976065158843994"><ele>864.66015625</ele></trkpt>
      <trkpt lat="42.664203643798828" lon="24.976108074188232"><ele>868.9296875</ele></trkpt>
      <trkpt lat="42.66441822052002" lon="24.976215362548828"><ele>873.1015625</ele></trkpt>
      <trkpt lat="42.664611339569092" lon="24.976236820220947"><ele>877.86328125</ele></trkpt>
      <trkpt lat="42.664761543273926" lon="24.976322650909424"><ele>881.06640625</ele></trkpt>
      <trkpt lat="42.66491174697876" lon="24.976387023925781"><ele>883.80859375</ele></trkpt>
      <trkpt lat="42.664997577667236" lon="24.976365566253662"><ele>886.1171875</ele></trkpt>
      <trkpt lat="42.665019035339355" lon="24.976236820220947"><ele>888.58984375</ele></trkpt>
      <trkpt lat="42.665019035339355" lon="24.976129531860352"><ele>889.6015625</ele></trkpt>
      <trkpt lat="42.665019035339355" lon="24.975979328155518"><ele>889.6015625</ele></trkpt>
      <trkpt lat="42.665104866027832" lon="24.975850582122803"><ele>891.56640625</ele></trkpt>
      <trkpt lat="42.665212154388428" lon="24.975743293762207"><ele>894.0546875</ele></trkpt>
      <trkpt lat="42.665340900421143" lon="24.975721836090088"><ele>897.0234375</ele></trkpt>
      <trkpt lat="42.665491104125977" lon="24.975786209106445"><ele>900.48828125</ele></trkpt>
      <trkpt lat="42.665619850158691" lon="24.975807666778564"><ele>903.453125</ele></trkpt>
      <trkpt lat="42.665727138519287" lon="24.975829124450684"><ele>905.9296875</ele></trkpt>
      <trkpt lat="42.665812969207764" lon="24.975743293762207"><ele>907.90625</ele></trkpt>
      <trkpt lat="42.666091918945313" lon="24.975936412811279"><ele>910.64453125</ele></trkpt>
      <trkpt lat="42.666306495666504" lon="24.975936412811279"><ele>911.41796875</ele></trkpt>
      <trkpt lat="42.666585445404053" lon="24.97591495513916"><ele>912.8515625</ele></trkpt>
      <trkpt lat="42.666671276092529" lon="24.975893497467041"><ele>914.453125</ele></trkpt>
      <trkpt lat="42.666735649108887" lon="24.975872039794922"><ele>915.27734375</ele></trkpt>
      <trkpt lat="42.666821479797363" lon="24.975786209106445"><ele>917.25390625</ele></trkpt>
      <trkpt lat="42.66716480255127" lon="24.97565746307373"><ele>921.875</ele></trkpt>
      <trkpt lat="42.667551040649414" lon="24.975485801696777"><ele>927.12890625</ele></trkpt>
      <trkpt lat="42.667829990386963" lon="24.975292682647705"><ele>930.98828125</ele></trkpt>
      <trkpt lat="42.668302059173584" lon="24.975013732910156"><ele>939.14453125</ele></trkpt>
      <trkpt lat="42.668452262878418" lon="24.974970817565918"><ele>942.5625</ele></trkpt>
      <trkpt lat="42.668606322258711" lon="24.974935110658407"><ele>948.75</ele></trkpt>
      <trkpt lat="42.668731212615967" lon="24.974906444549561"><ele>953.9609375</ele></trkpt>
      <trkpt lat="42.668945789337158" lon="24.974842071533203"><ele>962.20703125</ele></trkpt>
      <trkpt lat="42.66916036605835" lon="24.974713325500488"><ele>969.84765625</ele></trkpt>
      <trkpt lat="42.669267654418945" lon="24.974691867828369"><ele>973.875</ele></trkpt>
      <trkpt lat="42.66939640045166" lon="24.974262714385986"><ele>979.5234375</ele></trkpt>
      <trkpt lat="42.66939640045166" lon="24.974026679992676"><ele>981.40625</ele></trkpt>
      <trkpt lat="42.669417858123779" lon="24.97391939163208"><ele>982.60546875</ele></trkpt>
      <trkpt lat="42.669460773468018" lon="24.973790645599365"><ele>984.27734375</ele></trkpt>
      <trkpt lat="42.669503688812256" lon="24.973726272583008"><ele>985.859375</ele></trkpt>
      <trkpt lat="42.669568061828613" lon="24.973640441894531"><ele>988.00390625</ele></trkpt>
      <trkpt lat="42.66965389251709" lon="24.973554611206055"><ele>989.32421875</ele></trkpt>
      <trkpt lat="42.669761180877686" lon="24.973490238189697"><ele>990.97265625</ele></trkpt>
      <trkpt lat="42.670018672943115" lon="24.973361492156982"><ele>993.9453125</ele></trkpt>
      <trkpt lat="42.670125961303711" lon="24.973297119140625"><ele>995.78125</ele></trkpt>
      <trkpt lat="42.670211791992188" lon="24.973211288452148"><ele>997.5703125</ele></trkpt>
      <trkpt lat="42.670340538024902" lon="24.973104000091553"><ele>1000.34375</ele></trkpt>
      <trkpt lat="42.670415136963129" lon="24.973029401153326"><ele>1001.1875</ele></trkpt>
      <trkpt lat="42.670447826385498" lon="24.972996711730957"><ele>1001.31640625</ele></trkpt>
      <trkpt lat="42.670490741729736" lon="24.9729323387146"><ele>1001.8046875</ele></trkpt>
      <trkpt lat="42.670533657073975" lon="24.972825050354004"><ele>1002.71875</ele></trkpt>
      <trkpt lat="42.67064094543457" lon="24.972610473632812"><ele>1002.6015625</ele></trkpt>
      <trkpt lat="42.670683860778809" lon="24.972331523895264"><ele>1000.9609375</ele></trkpt>
      <trkpt lat="42.670748233795166" lon="24.972159862518311"><ele>1000.91796875</ele></trkpt>
      <trkpt lat="42.670876979827881" lon="24.971859455108643"><ele>1003.3828125</ele></trkpt>
      <trkpt lat="42.670962810516357" lon="24.97166633605957"><ele>1004.4921875</ele></trkpt>
      <trkpt lat="42.671048641204834" lon="24.971516132354736"><ele>1004.171875</ele></trkpt>
      <trkpt lat="42.671113014221191" lon="24.971387386322021"><ele>1005.0078125</ele></trkpt>
      <trkpt lat="42.671198844909668" lon="24.971280097961426"><ele>1005.99609375</ele></trkpt>
      <trkpt lat="42.671284675598145" lon="24.971215724945068"><ele>1005.62890625</ele></trkpt>
      <trkpt lat="42.671370506286621" lon="24.971129894256592"><ele>1005.31640625</ele></trkpt>
      <trkpt lat="42.671477794647217" lon="24.970958232879639"><ele>1007.6953125</ele></trkpt>
      <trkpt lat="42.671606540679932" lon="24.970722198486328"><ele>1010.2109375</ele></trkpt>
      <trkpt lat="42.671842575073242" lon="24.970443248748779"><ele>1012.22265625</ele></trkpt>
      <trkpt lat="42.671949863433838" lon="24.970378875732422"><ele>1013.41015625</ele></trkpt>
      <trkpt lat="42.672078609466553" lon="24.970314502716064"><ele>1015.36328125</ele></trkpt>
      <trkpt lat="42.672228813171387" lon="24.970293045043945"><ele>1016.8984375</ele></trkpt>
      <trkpt lat="42.67240047454834" lon="24.970271587371826"><ele>1018.171875</ele></trkpt>
      <trkpt lat="42.672572135925293" lon="24.970250129699707"><ele>1018.5</ele></trkpt>
      <trkpt lat="42.672722339630127" lon="24.97016429901123"><ele>1018.96484375</ele></trkpt>
      <trkpt lat="42.672812025994062" lon="24.97005969285965"><ele>1019.875</ele></trkpt>
      <trkpt lat="42.672851085662842" lon="24.970014095306396"><ele>1020.23046875</ele></trkpt>
      <trkpt lat="42.672958374023438" lon="24.969842433929443"><ele>1022.09765625</ele></trkpt>
      <trkpt lat="42.673130035400391" lon="24.969627857208252"><ele>1021.48828125</ele></trkpt>
      <trkpt lat="42.673301696777344" lon="24.969413280487061"><ele>1023.44921875</ele></trkpt>
      <trkpt lat="42.673516273498535" lon="24.969241619110107"><ele>1027.28125</ele></trkpt>
      <trkpt lat="42.673730850219727" lon="24.969069957733154"><ele>1032.1484375</ele></trkpt>
      <trkpt lat="42.673881053924561" lon="24.969027042388916"><ele>1034.16015625</ele></trkpt>
      <trkpt lat="42.674031257629395" lon="24.968898296356201"><ele>1036.59765625</ele></trkpt>
      <trkpt lat="42.674181461334229" lon="24.968769550323486"><ele>1038.62890625</ele></trkpt>
      <trkpt lat="42.674374580383301" lon="24.968576431274414"><ele>1041.58984375</ele></trkpt>
      <trkpt lat="42.674546241760254" lon="24.968383312225342"><ele>1044.70703125</ele></trkpt>
      <trkpt lat="42.674760818481445" lon="24.968211650848389"><ele>1048.0078125</ele></trkpt>
      <trkpt lat="42.674996852874756" lon="24.968061447143555"><ele>1050.18359375</ele></trkpt>
      <trkpt lat="42.675275802612305" lon="24.967889785766602"><ele>1053.79296875</ele></trkpt>
      <trkpt lat="42.675426006317139" lon="24.967782497406006"><ele>1056.1015625</ele></trkpt>
      <trkpt lat="42.675533294677734" lon="24.967718124389648"><ele>1057.75</ele></trkpt>
      <trkpt lat="42.675747871398926" lon="24.967632293701172"><ele>1061.078125</ele></trkpt>
      <trkpt lat="42.675962448120117" lon="24.967546463012695"><ele>1064.96875</ele></trkpt>
      <trkpt lat="42.67613410949707" lon="24.967482089996338"><ele>1068.03515625</ele></trkpt>
      <trkpt lat="42.676327228546143" lon="24.967374801635742"><ele>1071.765625</ele></trkpt>
      <trkpt lat="42.676520347595215" lon="24.967203140258789"><ele>1075.3671875</ele></trkpt>
      <trkpt lat="42.676713466644287" lon="24.966945648193359"><ele>1077.25</ele></trkpt>
      <trkpt lat="42.676906585693359" lon="24.966709613800049"><ele>1081.51953125</ele></trkpt>
      <trkpt lat="42.677035331726074" lon="24.966580867767334"><ele>1082.48828125</ele></trkpt>
      <trkpt lat="42.677206993103027" lon="24.966495037078857"><ele>1082.8671875</ele></trkpt>
      <trkpt lat="42.67737865447998" lon="24.966323375701904"><ele>1084.0234375</ele></trkpt>
      <trkpt lat="42.677593231201172" lon="24.966151714324951"><ele>1085.671875</ele></trkpt>
      <trkpt lat="42.677820967510343" lon="24.96596940793097"><ele>1086.01953125</ele></trkpt>
      <trkpt lat="42.677915096282959" lon="24.965894222259521"><ele>1086.16796875</ele></trkpt>
      <trkpt lat="42.678258419036865" lon="24.965658187866211"><ele>1086.9921875</ele></trkpt>
      <trkpt lat="42.678472995758057" lon="24.965465068817139"><ele>1088.36328125</ele></trkpt>
      <trkpt lat="42.678623199462891" lon="24.965293407440186"><ele>1089.640625</ele></trkpt>
      <trkpt lat="42.678687572479248" lon="24.965207576751709"><ele>1090.83203125</ele></trkpt>
      <trkpt lat="42.678687572479248" lon="24.964950084686279"><ele>1091.671875</ele></trkpt>
      <trkpt lat="42.678751945495605" lon="24.964778423309326"><ele>1092.6484375</ele></trkpt>
      <trkpt lat="42.678837776184082" lon="24.964585304260254"><ele>1093.97265625</ele></trkpt>
      <trkpt lat="42.678923606872559" lon="24.964370727539063"><ele>1095.53515625</ele></trkpt>
      <trkpt lat="42.679052352905273" lon="24.964241981506348"><ele>1097.50390625</ele></trkpt>
      <trkpt lat="42.679331302642822" lon="24.964091777801514"><ele>1101.14453125</ele></trkpt>
      <trkpt lat="42.679524421691895" lon="24.963920116424561"><ele>1103.09765625</ele></trkpt>
      <trkpt lat="42.679653167724609" lon="24.963662624359131"><ele>1105.10546875</ele></trkpt>
      <trkpt lat="42.679760456085205" lon="24.963405132293701"><ele>1104.6640625</ele></trkpt>
      <trkpt lat="42.679975032806396" lon="24.963061809539795"><ele>1104.17578125</ele></trkpt>
      <trkpt lat="42.680211067199707" lon="24.962761402130127"><ele>1105.58203125</ele></trkpt>
      <trkpt lat="42.68038272857666" lon="24.962546825408936"><ele>1107.1328125</ele></trkpt>
      <trkpt lat="42.68064022064209" lon="24.962267875671387"><ele>1107.13671875</ele></trkpt>
      <trkpt lat="42.680940628051758" lon="24.961967468261719"><ele>1111.24609375</ele></trkpt>
      <trkpt lat="42.681176662445068" lon="24.961731433868408"><ele>1113.09765625</ele></trkpt>
      <trkpt lat="42.681412696838379" lon="24.961495399475098"><ele>1116.7265625</ele></trkpt>
      <trkpt lat="42.681605815887451" lon="24.961366653442383"><ele>1119.6953125</ele></trkpt>
      <trkpt lat="42.681798934936523" lon="24.961109161376953"><ele>1122.66796875</ele></trkpt>
      <trkpt lat="42.681927680969238" lon="24.960916042327881"><ele>1124.64453125</ele></trkpt>
      <trkpt lat="42.682077884674072" lon="24.96068000793457"><ele>1127.16796875</ele></trkpt>
      <trkpt lat="42.682335376739502" lon="24.960401058197021"><ele>1133.10546875</ele></trkpt>
      <trkpt lat="42.682485580444336" lon="24.960229396820068"><ele>1135.66015625</ele></trkpt>
      <trkpt lat="42.682743072509766" lon="24.959843158721924"><ele>1138.62890625</ele></trkpt>
      <trkpt lat="42.682957649230957" lon="24.959585666656494"><ele>1142.02734375</ele></trkpt>
      <trkpt lat="42.68312931060791" lon="24.959285259246826"><ele>1145.33984375</ele></trkpt>
      <trkpt lat="42.683343887329102" lon="24.958920478820801"><ele>1147.52734375</ele></trkpt>
      <trkpt lat="42.683537006378174" lon="24.958705902099609"><ele>1150.39453125</ele></trkpt>
      <trkpt lat="42.683708667755127" lon="24.95844841003418"><ele>1152.265625</ele></trkpt>
      <trkpt lat="42.683858871459961" lon="24.95819091796875"><ele>1155.7421875</ele></trkpt>
      <trkpt lat="42.683966159820557" lon="24.95793342590332"><ele>1158.4296875</ele></trkpt>
      <trkpt lat="42.684094905853271" lon="24.957718849182129"><ele>1161.2890625</ele></trkpt>
      <trkpt lat="42.684202194213867" lon="24.957547187805176"><ele>1163.34765625</ele></trkpt>
      <trkpt lat="42.684288024902344" lon="24.957375526428223"><ele>1165.234375</ele></trkpt>
      <trkpt lat="42.684395313262939" lon="24.957118034362793"><ele>1166.09765625</ele></trkpt>
      <trkpt lat="42.684524059295654" lon="24.956924915313721"><ele>1167.99609375</ele></trkpt>
      <trkpt lat="42.684652805328369" lon="24.956753253936768"><ele>1168.77734375</ele></trkpt>
      <trkpt lat="42.684803009033203" lon="24.956603050231934"><ele>1169.93359375</ele></trkpt>
      <trkpt lat="42.684910297393799" lon="24.956495761871338"><ele>1169.62109375</ele></trkpt>
      <trkpt lat="42.685017585754395" lon="24.95643138885498"><ele>1168.58203125</ele></trkpt>
      <trkpt lat="42.685103416442871" lon="24.956474304199219"><ele>1169.5</ele></trkpt>
      <trkpt lat="42.685189247131348" lon="24.956560134887695"><ele>1169.97265625</ele></trkpt>
      <trkpt lat="42.685317993164063" lon="24.95668888092041"><ele>1172.20703125</ele></trkpt>
      <trkpt lat="42.685554027557373" lon="24.956839084625244"><ele>1171.90625</ele></trkpt>
      <trkpt lat="42.685768604278564" lon="24.956881999969482"><ele>1170.2890625</ele></trkpt>
      <trkpt lat="42.685983180999756" lon="24.956903457641602"><ele>1169.31640625</ele></trkpt>
      <trkpt lat="42.686262130737305" lon="24.956924915313721"><ele>1169.00390625</ele></trkpt>
      <trkpt lat="42.686519622802734" lon="24.95694637298584"><ele>1168.64453125</ele></trkpt>
      <trkpt lat="42.686691284179688" lon="24.956924915313721"><ele>1167.8203125</ele></trkpt>
      <trkpt lat="42.686862945556641" lon="24.95694637298584"><ele>1168.10546875</ele></trkpt>
      <trkpt lat="42.687098979949951" lon="24.957139492034912"><ele>1174.48828125</ele></trkpt>
      <trkpt lat="42.687270641326904" lon="24.957225322723389"><ele>1173.11328125</ele></trkpt>
      <trkpt lat="42.687356472015381" lon="24.957225322723389"><ele>1170.73828125</ele></trkpt>
      <trkpt lat="42.687506675720215" lon="24.957332611083984"><ele>1172.45703125</ele></trkpt>
      <trkpt lat="42.687699794769287" lon="24.957547187805176"><ele>1178.24609375</ele></trkpt>
      <trkpt lat="42.687807083129883" lon="24.957590103149414"><ele>1179.65625</ele></trkpt>
      <trkpt lat="42.688043117523193" lon="24.957590103149414"><ele>1185.2265625</ele></trkpt>
      <trkpt lat="42.688150405883789" lon="24.957461357116699"><ele>1183.9296875</ele></trkpt>
      <trkpt lat="42.688193321228027" lon="24.957311153411865"><ele>1181.1796875</ele></trkpt>
      <trkpt lat="42.688214778900146" lon="24.95718240737915"><ele>1178.55859375</ele></trkpt>
      <trkpt lat="42.688236236572266" lon="24.957032203674316"><ele>1175.1953125</ele></trkpt>
      <trkpt lat="42.688279151916504" lon="24.956881999969482"><ele>1173.6328125</ele></trkpt>
      <trkpt lat="42.688343524932861" lon="24.956753253936768"><ele>1173.3125</ele></trkpt>
      <trkpt lat="42.688558101654053" lon="24.956538677215576"><ele>1176.26953125</ele></trkpt>
      <trkpt lat="42.688837051391602" lon="24.956238269805908"><ele>1172.078125</ele></trkpt>
      <trkpt lat="42.689008712768555" lon="24.956173896789551"><ele>1171.03515625</ele></trkpt>
      <trkpt lat="42.689266204833984" lon="24.956238269805908"><ele>1177.671875</ele></trkpt>
      <trkpt lat="42.689459323883057" lon="24.956238269805908"><ele>1179.15625</ele></trkpt>
      <trkpt lat="42.689545154571533" lon="24.956238269805908"><ele>1179.81640625</ele></trkpt>
      <trkpt lat="42.689609527587891" lon="24.95619535446167"><ele>1179.421875</ele></trkpt>
      <trkpt lat="42.689673900604248" lon="24.956109523773193"><ele>1178.6953125</ele></trkpt>
      <trkpt lat="42.689716815948486" lon="24.955980777740479"><ele>1175.7265625</ele></trkpt>
      <trkpt lat="42.689738273620605" lon="24.955852031707764"><ele>1173.00390625</ele></trkpt>
      <trkpt lat="42.689802646636963" lon="24.955615997314453"><ele>1172.265625</ele></trkpt>
      <trkpt lat="42.689845561981201" lon="24.955465793609619"><ele>1170.6640625</ele></trkpt>
      <trkpt lat="42.689909934997559" lon="24.955294132232666"><ele>1168.97265625</ele></trkpt>
      <trkpt lat="42.69012451171875" lon="24.954993724822998"><ele>1167.26171875</ele></trkpt>
      <trkpt lat="42.69012451171875" lon="24.954993724822998"><ele>1167.26171875</ele></trkpt>
      <trkpt lat="42.690210342407227" lon="24.954907894134521"><ele>1166.15234375</ele></trkpt>
      <trkpt lat="42.690210342407227" lon="24.954907894134521"><ele>1166.15234375</ele></trkpt>
      <trkpt lat="42.690339088439941" lon="24.954822063446045"><ele>1165.328125</ele></trkpt>
      <trkpt lat="42.690339088439941" lon="24.954822063446045"><ele>1165.328125</ele></trkpt>
      <trkpt lat="42.690467834472656" lon="24.954779148101807"><ele>1165.04296875</ele></trkpt>
      <trkpt lat="42.690467834472656" lon="24.954779148101807"><ele>1165.04296875</ele></trkpt>
      <trkpt lat="42.690703868865967" lon="24.954843521118164"><ele>1168.54296875</ele></trkpt>
      <trkpt lat="42.690703868865967" lon="24.954843521118164"><ele>1168.54296875</ele></trkpt>
      <trkpt lat="42.691090106964111" lon="24.95495080947876"><ele>1166.875</ele></trkpt>
      <trkpt lat="42.691090106964111" lon="24.95495080947876"><ele>1166.875</ele></trkpt>
      <trkpt lat="42.691304683685303" lon="24.955143928527832"><ele>1173.203125</ele></trkpt>
      <trkpt lat="42.691304683685303" lon="24.955143928527832"><ele>1173.203125</ele></trkpt>
      <trkpt lat="42.691390514373779" lon="24.955208301544189"><ele>1176.50390625</ele></trkpt>
      <trkpt lat="42.691390514373779" lon="24.955208301544189"><ele>1176.50390625</ele></trkpt>
      <trkpt lat="42.691497802734375" lon="24.955143928527832"><ele>1171.75390625</ele></trkpt>
      <trkpt lat="42.691497802734375" lon="24.955143928527832"><ele>1171.75390625</ele></trkpt>
      <trkpt lat="42.691562175750732" lon="24.955015182495117"><ele>1168.5625</ele></trkpt>
      <trkpt lat="42.691562175750732" lon="24.955015182495117"><ele>1168.5625</ele></trkpt>
      <trkpt lat="42.691648006439209" lon="24.954864978790283"><ele>1168.3984375</ele></trkpt>
      <trkpt lat="42.691648006439209" lon="24.954864978790283"><ele>1168.3984375</ele></trkpt>
      <trkpt lat="42.691819667816162" lon="24.954650402069092"><ele>1170.02734375</ele></trkpt>
      <trkpt lat="42.691819667816162" lon="24.954650402069092"><ele>1170.02734375</ele></trkpt>
      <trkpt lat="42.692055702209473" lon="24.954285621643066"><ele>1164.8203125</ele></trkpt>
      <trkpt lat="42.692055702209473" lon="24.954285621643066"><ele>1164.8203125</ele></trkpt>
      <trkpt lat="42.69212007522583" lon="24.95394229888916"><ele>1157.05859375</ele></trkpt>
      <trkpt lat="42.69212007522583" lon="24.95394229888916"><ele>1157.05859375</ele></trkpt>
      <trkpt lat="42.692162990570068" lon="24.953620433807373"><ele>1149.421875</ele></trkpt>
      <trkpt lat="42.692162990570068" lon="24.953620433807373"><ele>1149.421875</ele></trkpt>
      <trkpt lat="42.692313194274902" lon="24.953577518463135"><ele>1149.5859375</ele></trkpt>
      <trkpt lat="42.692313194274902" lon="24.953577518463135"><ele>1149.5859375</ele></trkpt>
      <trkpt lat="42.692549228668213" lon="24.953556060791016"><ele>1144.8359375</ele></trkpt>
      <trkpt lat="42.692549228668213" lon="24.953556060791016"><ele>1144.8359375</ele></trkpt>
      <trkpt lat="42.692742347717285" lon="24.953534603118896"><ele>1141.12109375</ele></trkpt>
      <trkpt lat="42.692742347717285" lon="24.953534603118896"><ele>1141.12109375</ele></trkpt>
      <trkpt lat="42.692999839782715" lon="24.953556060791016"><ele>1136.69921875</ele></trkpt>
      <trkpt lat="42.692999839782715" lon="24.953556060791016"><ele>1136.69921875</ele></trkpt>
      <trkpt lat="42.69312858581543" lon="24.953856468200684"><ele>1142.9765625</ele></trkpt>
      <trkpt lat="42.69312858581543" lon="24.953856468200684"><ele>1142.9765625</ele></trkpt>
      <trkpt lat="42.693214416503906" lon="24.953985214233398"><ele>1144.78125</ele></trkpt>
      <trkpt lat="42.693214416503906" lon="24.953985214233398"><ele>1144.78125</ele></trkpt>
      <trkpt lat="42.693321704864502" lon="24.954028129577637"><ele>1143.3984375</ele></trkpt>
      <trkpt lat="42.693321704864502" lon="24.954028129577637"><ele>1143.3984375</ele></trkpt>
      <trkpt lat="42.693278789520264" lon="24.953877925872803"><ele>1139.2890625</ele></trkpt>
      <trkpt lat="42.693278789520264" lon="24.953877925872803"><ele>1139.2890625</ele></trkpt>
      <trkpt lat="42.693278789520264" lon="24.953749179840088"><ele>1135.33203125</ele></trkpt>
      <trkpt lat="42.693278789520264" lon="24.953749179840088"><ele>1135.33203125</ele></trkpt>
      <trkpt lat="42.693514823913574" lon="24.953899383544922"><ele>1134.59375</ele></trkpt>
      <trkpt lat="42.693514823913574" lon="24.953899383544922"><ele>1134.59375</ele></trkpt>
      <trkpt lat="42.693643569946289" lon="24.953835010528564"><ele>1130.84765625</ele></trkpt>
      <trkpt lat="42.693643569946289" lon="24.953835010528564"><ele>1130.84765625</ele></trkpt>
      <trkpt lat="42.694008350372314" lon="24.953577518463135"><ele>1118.4609375</ele></trkpt>
      <trkpt lat="42.694008350372314" lon="24.953577518463135"><ele>1118.4609375</ele></trkpt>
      <trkpt lat="42.694180011749268" lon="24.953470230102539"><ele>1116.9765625</ele></trkpt>
      <trkpt lat="42.694180011749268" lon="24.953470230102539"><ele>1116.9765625</ele></trkpt>
      <trkpt lat="42.694265842437744" lon="24.953234195709229"><ele>1111.90234375</ele></trkpt>
      <trkpt lat="42.694265842437744" lon="24.953234195709229"><ele>1111.90234375</ele></trkpt>
      <trkpt lat="42.694265842437744" lon="24.953105449676514"><ele>1108.9375</ele></trkpt>
      <trkpt lat="42.694265842437744" lon="24.953105449676514"><ele>1108.9375</ele></trkpt>
      <trkpt lat="42.694265842437744" lon="24.952762126922607"><ele>1103.21875</ele></trkpt>
      <trkpt lat="42.694265842437744" lon="24.952762126922607"><ele>1103.21875</ele></trkpt>
      <trkpt lat="42.694265842437744" lon="24.952332973480225"><ele>1101.6015625</ele></trkpt>
      <trkpt lat="42.694265842437744" lon="24.952332973480225"><ele>1101.6015625</ele></trkpt>
      <trkpt lat="42.694351673126221" lon="24.951667785644531"><ele>1110.84765625</ele></trkpt>
      <trkpt lat="42.694351673126221" lon="24.951667785644531"><ele>1110.84765625</ele></trkpt>
      <trkpt lat="42.694265842437744" lon="24.951174259185791"><ele>1109.93359375</ele></trkpt>
      <trkpt lat="42.694265842437744" lon="24.951174259185791"><ele>1109.93359375</ele></trkpt>
      <trkpt lat="42.694051265716553" lon="24.950466156005859"><ele>1108.41015625</ele></trkpt>
      <trkpt lat="42.694051265716553" lon="24.950466156005859"><ele>1108.41015625</ele></trkpt>
      <trkpt lat="42.693815231323242" lon="24.949908256530762"><ele>1104.7578125</ele></trkpt>
      <trkpt lat="42.693815231323242" lon="24.949908256530762"><ele>1104.7578125</ele></trkpt>
      <trkpt lat="42.693707942962646" lon="24.949393272399902"><ele>1098.22265625</ele></trkpt>
      <trkpt lat="42.693707942962646" lon="24.949393272399902"><ele>1098.22265625</ele></trkpt>
      <trkpt lat="42.6938796043396" lon="24.949071407318115"><ele>1094.76953125</ele></trkpt>
      <trkpt lat="42.6938796043396" lon="24.949071407318115"><ele>1094.76953125</ele></trkpt>
      <trkpt lat="42.694029808044434" lon="24.948813915252686"><ele>1093.27734375</ele></trkpt>
      <trkpt lat="42.694029808044434" lon="24.948813915252686"><ele>1093.27734375</ele></trkpt>
      <trkpt lat="42.694330215454102" lon="24.948492050170898"><ele>1095.4453125</ele></trkpt>
      <trkpt lat="42.694330215454102" lon="24.948492050170898"><ele>1095.4453125</ele></trkpt>
      <trkpt lat="42.694780826568604" lon="24.948277473449707"><ele>1105.96484375</ele></trkpt>
      <trkpt lat="42.694780826568604" lon="24.948277473449707"><ele>1105.96484375</ele></trkpt>
      <trkpt lat="42.695102691650391" lon="24.948041439056396"><ele>1106.43359375</ele></trkpt>
      <trkpt lat="42.695102691650391" lon="24.948041439056396"><ele>1106.43359375</ele></trkpt>
      <trkpt lat="42.695317268371582" lon="24.947934150695801"><ele>1107.171875</ele></trkpt>
      <trkpt lat="42.695317268371582" lon="24.947934150695801"><ele>1107.171875</ele></trkpt>
      <trkpt lat="42.695660591125488" lon="24.947590827941895"><ele>1114.953125</ele></trkpt>
      <trkpt lat="42.695660591125488" lon="24.947590827941895"><ele>1114.953125</ele></trkpt>
      <trkpt lat="42.695960998535156" lon="24.947311878204346"><ele>1128.86328125</ele></trkpt>
      <trkpt lat="42.695960998535156" lon="24.947311878204346"><ele>1128.86328125</ele></trkpt>
      <trkpt lat="42.696261405944824" lon="24.94720458984375"><ele>1139.4296875</ele></trkpt>
      <trkpt lat="42.696261405944824" lon="24.94720458984375"><ele>1139.4296875</ele></trkpt>
      <trkpt lat="42.696454524993896" lon="24.946818351745605"><ele>1141.05078125</ele></trkpt>
      <trkpt lat="42.696454524993896" lon="24.946818351745605"><ele>1141.05078125</ele></trkpt>
      <trkpt lat="42.696411609649658" lon="24.946389198303223"><ele>1148.83203125</ele></trkpt>
      <trkpt lat="42.696411609649658" lon="24.946389198303223"><ele>1148.83203125</ele></trkpt>
      <trkpt lat="42.696325778961182" lon="24.94596004486084"><ele>1145.23046875</ele></trkpt>
      <trkpt lat="42.696325778961182" lon="24.94596004486084"><ele>1145.23046875</ele></trkpt>
      <trkpt lat="42.696433067321777" lon="24.945616722106934"><ele>1144.53125</ele></trkpt>
      <trkpt lat="42.696433067321777" lon="24.945616722106934"><ele>1144.53125</ele></trkpt>
      <trkpt lat="42.696819305419922" lon="24.945316314697266"><ele>1158.86328125</ele></trkpt>
      <trkpt lat="42.696819305419922" lon="24.945316314697266"><ele>1158.86328125</ele></trkpt>
      <trkpt lat="42.697098255157471" lon="24.944844245910645"><ele>1158.5859375</ele></trkpt>
      <trkpt lat="42.697098255157471" lon="24.944844245910645"><ele>1158.5859375</ele></trkpt>
      <trkpt lat="42.697441577911377" lon="24.944694042205811"><ele>1169.89453125</ele></trkpt>
      <trkpt lat="42.697441577911377" lon="24.944694042205811"><ele>1169.89453125</ele></trkpt>
      <trkpt lat="42.697741985321045" lon="24.9444580078125"><ele>1175.984375</ele></trkpt>
      <trkpt lat="42.697741985321045" lon="24.9444580078125"><ele>1175.984375</ele></trkpt>
      <trkpt lat="42.697978019714355" lon="24.944007396697998"><ele>1182.98828125</ele></trkpt>
      <trkpt lat="42.697978019714355" lon="24.944007396697998"><ele>1182.98828125</ele></trkpt>
      <trkpt lat="42.698171138763428" lon="24.943857192993164"><ele>1185.2578125</ele></trkpt>
      <trkpt lat="42.698171138763428" lon="24.943857192993164"><ele>1185.2578125</ele></trkpt>
      <trkpt lat="42.698557376861572" lon="24.9434494972229"><ele>1187.4921875</ele></trkpt>
      <trkpt lat="42.698557376861572" lon="24.9434494972229"><ele>1187.4921875</ele></trkpt>
      <trkpt lat="42.699029445648193" lon="24.942848682403564"><ele>1177.9140625</ele></trkpt>
      <trkpt lat="42.699029445648193" lon="24.942848682403564"><ele>1177.9140625</ele></trkpt>
      <trkpt lat="42.69935131072998" lon="24.942569732666016"><ele>1182.3984375</ele></trkpt>
      <trkpt lat="42.69935131072998" lon="24.942569732666016"><ele>1182.3984375</ele></trkpt>
      <trkpt lat="42.699651718139648" lon="24.942140579223633"><ele>1179.796875</ele></trkpt>
      <trkpt lat="42.699651718139648" lon="24.942140579223633"><ele>1179.796875</ele></trkpt>
      <trkpt lat="42.699887752532959" lon="24.94171142578125"><ele>1189.41796875</ele></trkpt>
      <trkpt lat="42.699887752532959" lon="24.94171142578125"><ele>1189.41796875</ele></trkpt>
      <trkpt lat="42.699887752532959" lon="24.941239356994629"><ele>1189.89453125</ele></trkpt>
      <trkpt lat="42.699887752532959" lon="24.941239356994629"><ele>1189.89453125</ele></trkpt>
      <trkpt lat="42.699909210205078" lon="24.940917491912842"><ele>1186.61328125</ele></trkpt>
      <trkpt lat="42.699909210205078" lon="24.940917491912842"><ele>1186.61328125</ele></trkpt>
      <trkpt lat="42.70010232925415" lon="24.940638542175293"><ele>1189.24609375</ele></trkpt>
      <trkpt lat="42.70010232925415" lon="24.940638542175293"><ele>1189.24609375</ele></trkpt>
      <trkpt lat="42.70061731338501" lon="24.940123558044434"><ele>1207.58203125</ele></trkpt>
      <trkpt lat="42.70061731338501" lon="24.940123558044434"><ele>1207.58203125</ele></trkpt>
      <trkpt lat="42.700960636138916" lon="24.939565658569336"><ele>1213.90625</ele></trkpt>
      <trkpt lat="42.700960636138916" lon="24.939565658569336"><ele>1213.90625</ele></trkpt>
      <trkpt lat="42.700960636138916" lon="24.939329624176025"><ele>1219.859375</ele></trkpt>
      <trkpt lat="42.700960636138916" lon="24.939329624176025"><ele>1219.859375</ele></trkpt>
      <trkpt lat="42.700767517089844" lon="24.939243793487549"><ele>1224.31640625</ele></trkpt>
      <trkpt lat="42.700767517089844" lon="24.939243793487549"><ele>1224.31640625</ele></trkpt>
      <trkpt lat="42.700231075286865" lon="24.939050674438477"><ele>1239.64453125</ele></trkpt>
      <trkpt lat="42.700231075286865" lon="24.939050674438477"><ele>1239.64453125</ele></trkpt>
      <trkpt lat="42.699716091156006" lon="24.939093589782715"><ele>1249.5703125</ele></trkpt>
      <trkpt lat="42.699716091156006" lon="24.939093589782715"><ele>1249.5703125</ele></trkpt>
      <trkpt lat="42.699179649353027" lon="24.939286708831787"><ele>1258.5546875</ele></trkpt>
      <trkpt lat="42.699179649353027" lon="24.939286708831787"><ele>1258.5546875</ele></trkpt>
      <trkpt lat="42.698771953582764" lon="24.939501285552979"><ele>1267.8828125</ele></trkpt>
      <trkpt lat="42.698771953582764" lon="24.939501285552979"><ele>1267.8828125</ele></trkpt>
      <trkpt lat="42.698578834533691" lon="24.939436912536621"><ele>1274.78125</ele></trkpt>
      <trkpt lat="42.698578834533691" lon="24.939436912536621"><ele>1274.78125</ele></trkpt>
      <trkpt lat="42.698557376861572" lon="24.939072132110596"><ele>1283.5859375</ele></trkpt>
      <trkpt lat="42.698557376861572" lon="24.939072132110596"><ele>1283.5859375</ele></trkpt>
      <trkpt lat="42.698729038238525" lon="24.938600063323975"><ele>1293.8203125</ele></trkpt>
      <trkpt lat="42.698729038238525" lon="24.938600063323975"><ele>1293.8203125</ele></trkpt>
      <trkpt lat="42.699286937713623" lon="24.938042163848877"><ele>1306.68359375</ele></trkpt>
      <trkpt lat="42.699286937713623" lon="24.938042163848877"><ele>1306.68359375</ele></trkpt>
      <trkpt lat="42.699587345123291" lon="24.937784671783447"><ele>1312.2890625</ele></trkpt>
      <trkpt lat="42.699587345123291" lon="24.937784671783447"><ele>1312.2890625</ele></trkpt>
      <trkpt lat="42.699587345123291" lon="24.937613010406494"><ele>1317.56640625</ele></trkpt>
      <trkpt lat="42.699587345123291" lon="24.937613010406494"><ele>1317.56640625</ele></trkpt>
      <trkpt lat="42.699308395385742" lon="24.937505722045898"><ele>1325.48046875</ele></trkpt>
      <trkpt lat="42.699308395385742" lon="24.937505722045898"><ele>1325.48046875</ele></trkpt>
      <trkpt lat="42.699007987976074" lon="24.937376976013184"><ele>1332.99609375</ele></trkpt>
      <trkpt lat="42.699007987976074" lon="24.937376976013184"><ele>1332.99609375</ele></trkpt>
      <trkpt lat="42.698514461517334" lon="24.937334060668945"><ele>1338.65625</ele></trkpt>
      <trkpt lat="42.698514461517334" lon="24.937334060668945"><ele>1338.65625</ele></trkpt>
      <trkpt lat="42.698149681091309" lon="24.93720531463623"><ele>1351.2578125</ele></trkpt>
      <trkpt lat="42.698149681091309" lon="24.93720531463623"><ele>1351.2578125</ele></trkpt>
      <trkpt lat="42.698085308074951" lon="24.937012195587158"><ele>1361.515625</ele></trkpt>
      <trkpt lat="42.698085308074951" lon="24.937012195587158"><ele>1361.515625</ele></trkpt>
      <trkpt lat="42.698428630828857" lon="24.936690330505371"><ele>1368.1015625</ele></trkpt>
      <trkpt lat="42.698428630828857" lon="24.936690330505371"><ele>1368.1015625</ele></trkpt>
      <trkpt lat="42.698879241943359" lon="24.936282634735107"><ele>1378.30859375</ele></trkpt>
      <trkpt lat="42.698879241943359" lon="24.936282634735107"><ele>1378.30859375</ele></trkpt>
      <trkpt lat="42.6993727684021" lon="24.935896396636963"><ele>1390.6640625</ele></trkpt>
      <trkpt lat="42.6993727684021" lon="24.935896396636963"><ele>1390.6640625</ele></trkpt>
      <trkpt lat="42.6993727684021" lon="24.935746192932129"><ele>1397.58984375</ele></trkpt>
      <trkpt lat="42.6993727684021" lon="24.935746192932129"><ele>1397.58984375</ele></trkpt>
      <trkpt lat="42.699179649353027" lon="24.935553073883057"><ele>1408.8359375</ele></trkpt>
      <trkpt lat="42.699179649353027" lon="24.935553073883057"><ele>1408.8359375</ele></trkpt>
      <trkpt lat="42.698793411254883" lon="24.935252666473389"><ele>1427.38671875</ele></trkpt>
      <trkpt lat="42.698793411254883" lon="24.935252666473389"><ele>1427.38671875</ele></trkpt>
      <trkpt lat="42.698493003845215" lon="24.93523120880127"><ele>1431.08984375</ele></trkpt>
      <trkpt lat="42.698493003845215" lon="24.93523120880127"><ele>1431.08984375</ele></trkpt>
      <trkpt lat="42.698042392730713" lon="24.935166835784912"><ele>1437.3125</ele></trkpt>
      <trkpt lat="42.698042392730713" lon="24.935166835784912"><ele>1437.3125</ele></trkpt>
      <trkpt lat="42.697505950927734" lon="24.935102462768555"><ele>1442.65625</ele></trkpt>
      <trkpt lat="42.697505950927734" lon="24.935102462768555"><ele>1442.65625</ele></trkpt>
      <trkpt lat="42.697248458862305" lon="24.935252666473389"><ele>1440.96875</ele></trkpt>
      <trkpt lat="42.697248458862305" lon="24.935252666473389"><ele>1440.96875</ele></trkpt>
      <trkpt lat="42.696969509124756" lon="24.93546724319458"><ele>1441.81640625</ele></trkpt>
      <trkpt lat="42.696969509124756" lon="24.93546724319458"><ele>1441.81640625</ele></trkpt>
      <trkpt lat="42.696819305419922" lon="24.935574531555176"><ele>1442.80859375</ele></trkpt>
      <trkpt lat="42.696819305419922" lon="24.935574531555176"><ele>1442.80859375</ele></trkpt>
      <trkpt lat="42.69660472869873" lon="24.935510158538818"><ele>1447.94921875</ele></trkpt>
      <trkpt lat="42.69660472869873" lon="24.935510158538818"><ele>1447.94921875</ele></trkpt>
      <trkpt lat="42.696411609649658" lon="24.935424327850342"><ele>1453.58984375</ele></trkpt>
      <trkpt lat="42.696411609649658" lon="24.935424327850342"><ele>1453.58984375</ele></trkpt>
      <trkpt lat="42.695832252502441" lon="24.93546724319458"><ele>1448.58203125</ele></trkpt>
      <trkpt lat="42.695832252502441" lon="24.93546724319458"><ele>1448.58203125</ele></trkpt>
      <trkpt lat="42.695639133453369" lon="24.93546724319458"><ele>1446.98828125</ele></trkpt>
      <trkpt lat="42.695639133453369" lon="24.93546724319458"><ele>1446.98828125</ele></trkpt>
      <trkpt lat="42.695510387420654" lon="24.935359954833984"><ele>1449.07421875</ele></trkpt>
      <trkpt lat="42.695510387420654" lon="24.935359954833984"><ele>1449.07421875</ele></trkpt>
      <trkpt lat="42.695424556732178" lon="24.935016632080078"><ele>1452.5390625</ele></trkpt>
      <trkpt lat="42.695424556732178" lon="24.935016632080078"><ele>1452.5390625</ele></trkpt>
      <trkpt lat="42.695446014404297" lon="24.934909343719482"><ele>1452.0546875</ele></trkpt>
      <trkpt lat="42.695446014404297" lon="24.934909343719482"><ele>1452.0546875</ele></trkpt>
      <trkpt lat="42.695488929748535" lon="24.93471622467041"><ele>1450.59765625</ele></trkpt>
      <trkpt lat="42.695488929748535" lon="24.93471622467041"><ele>1450.59765625</ele></trkpt>
      <trkpt lat="42.695596218109131" lon="24.934544563293457"><ele>1448.78515625</ele></trkpt>
      <trkpt lat="42.695596218109131" lon="24.934544563293457"><ele>1448.78515625</ele></trkpt>
      <trkpt lat="42.695789337158203" lon="24.934115409851074"><ele>1448.4453125</ele></trkpt>
      <trkpt lat="42.695789337158203" lon="24.934115409851074"><ele>1448.4453125</ele></trkpt>
      <trkpt lat="42.696046829223633" lon="24.93372917175293"><ele>1447.28515625</ele></trkpt>
      <trkpt lat="42.696046829223633" lon="24.93372917175293"><ele>1447.28515625</ele></trkpt>
      <trkpt lat="42.696325778961182" lon="24.933257102966309"><ele>1444.28515625</ele></trkpt>
      <trkpt lat="42.696325778961182" lon="24.933257102966309"><ele>1444.28515625</ele></trkpt>
      <trkpt lat="42.696475982666016" lon="24.933085441589355"><ele>1441.453125</ele></trkpt>
      <trkpt lat="42.696475982666016" lon="24.933085441589355"><ele>1441.453125</ele></trkpt>
      <trkpt lat="42.696583271026611" lon="24.932935237884521"><ele>1444.7890625</ele></trkpt>
      <trkpt lat="42.696583271026611" lon="24.932935237884521"><ele>1444.7890625</ele></trkpt>
      <trkpt lat="42.696754932403564" lon="24.93248462677002"><ele>1438.0390625</ele></trkpt>
      <trkpt lat="42.696754932403564" lon="24.93248462677002"><ele>1438.0390625</ele></trkpt>
      <trkpt lat="42.696754932403564" lon="24.931926727294922"><ele>1433.89453125</ele></trkpt>
      <trkpt lat="42.696754932403564" lon="24.931926727294922"><ele>1433.89453125</ele></trkpt>
      <trkpt lat="42.69660472869873" lon="24.931540489196777"><ele>1431.625</ele></trkpt>
      <trkpt lat="42.69660472869873" lon="24.931540489196777"><ele>1431.625</ele></trkpt>
      <trkpt lat="42.696497440338135" lon="24.931433200836182"><ele>1430.2890625</ele></trkpt>
      <trkpt lat="42.696497440338135" lon="24.931433200836182"><ele>1430.2890625</ele></trkpt>
      <trkpt lat="42.696475982666016" lon="24.931197166442871"><ele>1431.76953125</ele></trkpt>
      <trkpt lat="42.696475982666016" lon="24.931197166442871"><ele>1431.76953125</ele></trkpt>
      <trkpt lat="42.696518898010254" lon="24.930961132049561"><ele>1430.35546875</ele></trkpt>
      <trkpt lat="42.696518898010254" lon="24.930961132049561"><ele>1430.35546875</ele></trkpt>
      <trkpt lat="42.696712017059326" lon="24.930939674377441"><ele>1431.67578125</ele></trkpt>
      <trkpt lat="42.696712017059326" lon="24.930939674377441"><ele>1431.67578125</ele></trkpt>
      <trkpt lat="42.696883678436279" lon="24.930789470672607"><ele>1431.3203125</ele></trkpt>
      <trkpt lat="42.696883678436279" lon="24.930789470672607"><ele>1431.3203125</ele></trkpt>
      <trkpt lat="42.697055339813232" lon="24.930424690246582"><ele>1428.7890625</ele></trkpt>
      <trkpt lat="42.697055339813232" lon="24.930424690246582"><ele>1428.7890625</ele></trkpt>
      <trkpt lat="42.697076797485352" lon="24.930210113525391"><ele>1427.9765625</ele></trkpt>
      <trkpt lat="42.697076797485352" lon="24.930210113525391"><ele>1427.9765625</ele></trkpt>
      <trkpt lat="42.697076797485352" lon="24.930016994476318"><ele>1427.3203125</ele></trkpt>
      <trkpt lat="42.697076797485352" lon="24.930016994476318"><ele>1427.3203125</ele></trkpt>
      <trkpt lat="42.69711971282959" lon="24.929695129394531"><ele>1429.48046875</ele></trkpt>
      <trkpt lat="42.69711971282959" lon="24.929695129394531"><ele>1429.48046875</ele></trkpt>
      <trkpt lat="42.697162628173828" lon="24.929394721984863"><ele>1429.41015625</ele></trkpt>
      <trkpt lat="42.697162628173828" lon="24.929394721984863"><ele>1429.41015625</ele></trkpt>
      <trkpt lat="42.697591781616211" lon="24.928793907165527"><ele>1436.078125</ele></trkpt>
      <trkpt lat="42.697591781616211" lon="24.928793907165527"><ele>1436.078125</ele></trkpt>
      <trkpt lat="42.69787073135376" lon="24.928321838378906"><ele>1440.10546875</ele></trkpt>
      <trkpt lat="42.69787073135376" lon="24.928321838378906"><ele>1440.10546875</ele></trkpt>
      <trkpt lat="42.698192596435547" lon="24.927914142608643"><ele>1445.91015625</ele></trkpt>
      <trkpt lat="42.698192596435547" lon="24.927914142608643"><ele>1445.91015625</ele></trkpt>
      <trkpt lat="42.698493003845215" lon="24.927549362182617"><ele>1449.703125</ele></trkpt>
      <trkpt lat="42.698493003845215" lon="24.927549362182617"><ele>1449.703125</ele></trkpt>
      <trkpt lat="42.698600292205811" lon="24.927377700805664"><ele>1452.8359375</ele></trkpt>
      <trkpt lat="42.698600292205811" lon="24.927377700805664"><ele>1452.8359375</ele></trkpt>
      <trkpt lat="42.698493003845215" lon="24.927206039428711"><ele>1448.93359375</ele></trkpt>
      <trkpt lat="42.698493003845215" lon="24.927206039428711"><ele>1448.93359375</ele></trkpt>
      <trkpt lat="42.69862174987793" lon="24.927141666412354"><ele>1456.39453125</ele></trkpt>
      <trkpt lat="42.69862174987793" lon="24.927141666412354"><ele>1456.39453125</ele></trkpt>
      <trkpt lat="42.698729038238525" lon="24.927141666412354"><ele>1461.37109375</ele></trkpt>
      <trkpt lat="42.698729038238525" lon="24.927141666412354"><ele>1461.37109375</ele></trkpt>
      <trkpt lat="42.69885778427124" lon="24.927034378051758"><ele>1469.9453125</ele></trkpt>
      <trkpt lat="42.69885778427124" lon="24.927034378051758"><ele>1469.9453125</ele></trkpt>
      <trkpt lat="42.698879241943359" lon="24.926884174346924"><ele>1475.43359375</ele></trkpt>
      <trkpt lat="42.698879241943359" lon="24.926884174346924"><ele>1475.43359375</ele></trkpt>
      <trkpt lat="42.698922157287598" lon="24.926819801330566"><ele>1479.08984375</ele></trkpt>
      <trkpt lat="42.698922157287598" lon="24.926819801330566"><ele>1479.08984375</ele></trkpt>
      <trkpt lat="42.698922157287598" lon="24.92673397064209"><ele>1481.4609375</ele></trkpt>
      <trkpt lat="42.698922157287598" lon="24.92673397064209"><ele>1481.4609375</ele></trkpt>
      <trkpt lat="42.699093818664551" lon="24.926755428314209"><ele>1488.2421875</ele></trkpt>
      <trkpt lat="42.699093818664551" lon="24.926755428314209"><ele>1488.2421875</ele></trkpt>
      <trkpt lat="42.699265480041504" lon="24.926648139953613"><ele>1499.46875</ele></trkpt>
      <trkpt lat="42.699265480041504" lon="24.926648139953613"><ele>1499.46875</ele></trkpt>
      <trkpt lat="42.69935131072998" lon="24.926497936248779"><ele>1508.67578125</ele></trkpt>
      <trkpt lat="42.69935131072998" lon="24.926497936248779"><ele>1508.67578125</ele></trkpt>
      <trkpt lat="42.699415683746338" lon="24.926176071166992"><ele>1523.02734375</ele></trkpt>
      <trkpt lat="42.699415683746338" lon="24.926176071166992"><ele>1523.02734375</ele></trkpt>
      <trkpt lat="42.699544429779053" lon="24.925811290740967"><ele>1541.046875</ele></trkpt>
      <trkpt lat="42.699544429779053" lon="24.925811290740967"><ele>1541.046875</ele></trkpt>
      <trkpt lat="42.699716091156006" lon="24.925746917724609"><ele>1551.43359375</ele></trkpt>
      <trkpt lat="42.699716091156006" lon="24.925746917724609"><ele>1551.43359375</ele></trkpt>
      <trkpt lat="42.699973583221436" lon="24.925682544708252"><ele>1565.78125</ele></trkpt>
      <trkpt lat="42.699973583221436" lon="24.925682544708252"><ele>1565.78125</ele></trkpt>
      <trkpt lat="42.700188159942627" lon="24.925682544708252"><ele>1574.859375</ele></trkpt>
      <trkpt lat="42.700188159942627" lon="24.925682544708252"><ele>1574.859375</ele></trkpt>
      <trkpt lat="42.700295448303223" lon="24.925618171691895"><ele>1581.70703125</ele></trkpt>
      <trkpt lat="42.700295448303223" lon="24.925618171691895"><ele>1581.70703125</ele></trkpt>
      <trkpt lat="42.700510025024414" lon="24.925553798675537"><ele>1591.921875</ele></trkpt>
      <trkpt lat="42.700510025024414" lon="24.925553798675537"><ele>1591.921875</ele></trkpt>
      <trkpt lat="42.700703144073486" lon="24.925467967987061"><ele>1601.55078125</ele></trkpt>
      <trkpt lat="42.700703144073486" lon="24.925467967987061"><ele>1601.55078125</ele></trkpt>
      <trkpt lat="42.700831890106201" lon="24.925382137298584"><ele>1608.3984375</ele></trkpt>
      <trkpt lat="42.700831890106201" lon="24.925382137298584"><ele>1608.3984375</ele></trkpt>
      <trkpt lat="42.701046466827393" lon="24.925360679626465"><ele>1619.75390625</ele></trkpt>
      <trkpt lat="42.701046466827393" lon="24.925360679626465"><ele>1619.75390625</ele></trkpt>
      <trkpt lat="42.701024506241083" lon="24.925362775102258"><ele>1618.15234375</ele></trkpt>
      <trkpt lat="42.701024506241083" lon="24.925362775102258"><ele>1618.15234375</ele></trkpt>
    </trkseg>
  </trk>

</gpx>